{"type":"FeatureCollection","features":[{"type":"Feature","properties":{"iso_3166_2":"JP-01"},"geometry":{"type":"MultiPolygon","coordinates":[[[[145.7674,43.3873],[145.825,43.3736],[145.8185,43.3644],[145.6841,43.3102],[145.6292,43.3098],[145.5723,43.257],[145.5518,43.2098],[145.5171,43.175],[145.5306,43.1688],[145.4524,43.1839],[145.3025,43.1735],[145.2311,43.1411],[145.1384,43.1282],[145.1193,43.1061],[145.1227,43.0882],[145.1682,43.0794],[145.111,43.0636],[145.0757,43.034],[145.0031,43.0446],[145.0275,43.0093],[145.0143,42.9895],[144.8998,42.9795],[144.8421,43.0071],[144.8402,43.0401],[144.7987,43.0467],[144.7576,43.0188],[144.7356,42.9795],[144.7835,42.9348],[144.742,42.9242],[144.5991,42.9491],[144.4649,42.9371],[144.3906,42.9564],[144.3581,42.9995],[144.323,43.0026],[144.1831,42.9764],[144.042,42.9266],[143.8864,42.8442],[143.7903,42.7573],[143.6388,42.6611],[143.5752,42.6033],[143.349,42.3192],[143.3249,42.2297],[143.3379,42.1502],[143.3311,42.1069],[143.3035,42.0258],[143.2655,41.9867],[143.2415,41.928],[143.1824,41.9616],[143.1152,42.028],[142.9597,42.1054],[142.7577,42.1584],[142.5464,42.2506],[142.46,42.2713],[142.281,42.3665],[142.1678,42.4599],[142.0626,42.4707],[141.981,42.5102],[141.926,42.5586],[141.8171,42.5996],[141.7261,42.6172],[141.6365,42.6158],[141.4277,42.5644],[141.2625,42.4682],[141.0916,42.3918],[141.0168,42.3161],[140.9773,42.2996],[140.9524,42.3048],[140.9317,42.3288],[140.9754,42.3266],[140.9868,42.3398],[140.918,42.3725],[140.9014,42.4208],[140.7337,42.5642],[140.6863,42.5792],[140.5007,42.5792],[140.417,42.5382],[140.3254,42.4328],[140.2886,42.3502],[140.2815,42.3048],[140.2918,42.2596],[140.3216,42.234],[140.4564,42.1731],[140.5488,42.1055],[140.7136,42.1335],[140.7736,42.1022],[140.8371,42.0236],[140.9085,41.9789],[140.9743,41.9138],[141.1069,41.8718],[141.2,41.7995],[141.1216,41.7794],[141.0433,41.7239],[141.0064,41.7121],[140.824,41.7707],[140.7751,41.7704],[140.708,41.7456],[140.6986,41.7598],[140.7334,41.7936],[140.7272,41.8113],[140.709,41.8244],[140.6604,41.8271],[140.6416,41.8151],[140.6043,41.7363],[140.4529,41.6811],[140.4333,41.6447],[140.4432,41.5637],[140.4324,41.5308],[140.2747,41.4824],[140.2412,41.4572],[140.209,41.4011],[140.1375,41.421],[140.1004,41.4135],[140.0383,41.4426],[139.9798,41.5817],[140.0195,41.697],[140.0711,41.7602],[140.083,41.8008],[140.1267,41.814],[140.1239,41.866],[140.145,41.8796],[140.1517,41.9138],[140.1397,41.9487],[140.145,41.9827],[140.0276,42.1055],[139.9275,42.1389],[139.8836,42.195],[139.7983,42.2359],[139.7676,42.311],[139.8368,42.4239],[139.8493,42.5141],[139.8328,42.5888],[139.8434,42.6269],[139.877,42.6634],[139.9172,42.6772],[140.0379,42.686],[140.0955,42.7338],[140.1359,42.7471],[140.1834,42.8102],[140.2004,42.8143],[140.2608,42.761],[140.2815,42.7573],[140.3032,42.7697],[140.3118,42.816],[140.3771,42.8938],[140.5212,42.9963],[140.5271,43.0154],[140.4873,43.0827],[140.3381,43.2105],[140.3294,43.2507],[140.3601,43.3252],[140.4339,43.3284],[140.4529,43.3389],[140.4651,43.3681],[140.4872,43.3724],[140.7962,43.1955],[140.9126,43.2042],[141.0112,43.229],[141.0223,43.2238],[141.0044,43.1931],[141.022,43.175],[141.1691,43.1409],[141.2276,43.1545],[141.304,43.1973],[141.3709,43.2507],[141.4233,43.3179],[141.4401,43.3617],[141.4397,43.4078],[141.3599,43.5236],[141.3914,43.5791],[141.3374,43.7128],[141.385,43.7913],[141.4248,43.8146],[141.5282,43.8412],[141.5847,43.8754],[141.6406,43.9379],[141.6702,44.0666],[141.6554,44.2769],[141.6657,44.3127],[141.7472,44.4242],[141.7961,44.6418],[141.7835,44.7654],[141.7536,44.8854],[141.7219,44.9551],[141.5864,45.1644],[141.5749,45.2069],[141.5838,45.2512],[141.6492,45.341],[141.6371,45.4044],[141.648,45.4372],[141.6657,45.4504],[141.6773,45.4443],[141.6921,45.4023],[141.8233,45.4226],[141.8753,45.4482],[141.8787,45.484],[141.9194,45.5159],[141.9605,45.5102],[142.0567,45.402],[142.2212,45.2996],[142.5393,45.0185],[142.6307,44.8837],[142.6657,44.8666],[142.714,44.8062],[142.9075,44.6474],[142.9398,44.6347],[142.9815,44.5865],[143.2969,44.3947],[143.3514,44.381],[143.3692,44.3463],[143.4053,44.3175],[143.5524,44.2525],[143.7766,44.1893],[143.6804,44.1824],[143.7146,44.1514],[143.7283,44.1135],[143.7424,44.1209],[143.7832,44.1007],[143.9378,44.0964],[143.9992,44.134],[144.1193,44.1291],[144.1717,44.106],[144.1268,44.0801],[144.1055,44.0316],[144.1528,44.0198],[144.1887,44.0503],[144.2151,44.1115],[144.2429,44.1192],[144.2634,44.1078],[144.2559,44.0794],[144.2783,44.0368],[144.3023,44.0241],[144.3278,43.9838],[144.3794,43.9565],[144.5703,43.9248],[144.7405,43.9146],[144.8312,43.9422],[145.0485,44.1221],[145.2017,44.2058],[145.2503,44.2718],[145.3097,44.3164],[145.3228,44.3418],[145.3415,44.3455],[145.3731,44.2922],[145.3718,44.2488],[145.2905,44.1545],[145.2604,44.0694],[145.1443,43.9529],[145.1061,43.8808],[145.116,43.8625],[145.1099,43.8419],[145.0715,43.7746],[145.116,43.6868],[145.2185,43.5897],[145.3117,43.3668],[145.3936,43.3054],[145.3617,43.3015],[145.2992,43.3413],[145.27,43.3464],[145.2583,43.3271],[145.3151,43.3029],[145.3208,43.296],[145.3042,43.2917],[145.3216,43.2763],[145.4684,43.253],[145.5171,43.229],[145.522,43.2412],[145.4966,43.2706],[145.5823,43.3358],[145.6338,43.3532],[145.6616,43.3798],[145.7674,43.3873]]],[[[141.3272,45.1723],[141.3356,45.1578],[141.3101,45.1246],[141.2512,45.0992],[141.1501,45.1471],[141.1311,45.1702],[141.1455,45.1898],[141.1318,45.2103],[141.1672,45.24],[141.2026,45.2491],[141.2683,45.2255],[141.3272,45.1723]]],[[[139.5485,42.2434],[139.5642,42.2318],[139.5207,42.1745],[139.509,42.1008],[139.4939,42.0788],[139.4456,42.0548],[139.4295,42.0738],[139.4108,42.154],[139.4238,42.1916],[139.4522,42.2153],[139.5485,42.2434]]],[[[141.0527,45.4504],[141.0736,45.4247],[141.0591,45.322],[141.0357,45.2649],[141.0357,45.2922],[140.9989,45.35],[141.001,45.4191],[140.9668,45.4634],[140.9861,45.4674],[141.0066,45.4404],[141.0527,45.4504]]],[[[145.3115,43.5933],[145.3628,43.5549],[145.312,43.5422],[145.2835,43.5179],[145.2732,43.5224],[145.2769,43.5382],[145.332,43.5654],[145.2024,43.6138],[145.3115,43.5933]]],[[[143.8965,44.1581],[143.9758,44.1483],[143.9404,44.1391],[143.8137,44.1684],[143.8363,44.1759],[143.8965,44.1581]]]]}},{"type":"Feature","properties":{"iso_3166_2":"JP-02"},"geometry":{"type":"MultiPolygon","coordinates":[[[[139.9438,40.4293],[139.9428,40.5446],[139.9152,40.5862],[139.8568,40.5902],[139.8604,40.6088],[139.9003,40.6425],[139.9258,40.6468],[139.9386,40.6698],[139.9595,40.6777],[139.9982,40.7421],[140.046,40.7678],[140.1224,40.7448],[140.198,40.7865],[140.2191,40.7783],[140.2581,40.7956],[140.2966,40.8738],[140.3219,41.0274],[140.3696,40.9861],[140.3823,40.9883],[140.3696,41.0217],[140.4078,41.0257],[140.399,41.0394],[140.3506,41.0388],[140.3407,41.05],[140.3269,41.0412],[140.3219,41.0829],[140.3002,41.1113],[140.2481,41.1234],[140.2562,41.1389],[140.304,41.1367],[140.3204,41.1498],[140.3423,41.2657],[140.4622,41.1839],[140.4837,41.1835],[140.5486,41.2262],[140.5939,41.2202],[140.6327,41.1943],[140.6427,41.1714],[140.631,41.1057],[140.6413,41.0415],[140.673,40.8956],[140.7031,40.8533],[140.7524,40.8352],[140.7992,40.8391],[140.8521,40.8838],[140.8707,40.9151],[140.8708,40.9449],[140.8405,40.953],[140.8615,40.9571],[140.8887,41.0108],[140.9487,40.9907],[140.9814,40.9598],[140.9751,40.9378],[141.0582,40.9165],[141.0837,40.8864],[141.1263,40.8729],[141.1852,40.9112],[141.2264,40.9874],[141.2464,41.1069],[141.2779,41.1553],[141.2561,41.2112],[141.2059,41.2647],[141.1612,41.2785],[141.137,41.2467],[141.1591,41.2567],[141.1468,41.2363],[141.0581,41.1831],[140.9776,41.1965],[140.9463,41.1733],[140.8627,41.1641],[140.8145,41.1285],[140.7658,41.145],[140.7656,41.196],[140.7782,41.2069],[140.8031,41.3295],[140.8152,41.3376],[140.837,41.4182],[140.9011,41.481],[140.9071,41.5385],[140.9136,41.5469],[141.0033,41.4871],[141.1078,41.4639],[141.195,41.3872],[141.2761,41.3532],[141.3822,41.3726],[141.4639,41.426],[141.4575,41.3775],[141.4238,41.3127],[141.3908,41.161],[141.3903,40.9339],[141.4232,40.7258],[141.4374,40.6701],[141.4916,40.5623],[141.5325,40.5314],[141.5755,40.5423],[141.681,40.451],[141.5878,40.4071],[141.5531,40.3592],[141.4543,40.3674],[141.3569,40.3401],[141.3025,40.3554],[141.0876,40.2627],[141.0015,40.2113],[140.9263,40.244],[140.964,40.3806],[140.9599,40.4108],[140.9366,40.4329],[140.9469,40.4597],[140.8688,40.4966],[140.819,40.4923],[140.788,40.4624],[140.7169,40.4255],[140.6479,40.4118],[140.5923,40.4252],[140.5278,40.4122],[140.409,40.4808],[140.3006,40.4471],[140.1219,40.4486],[140.0614,40.4641],[139.9961,40.4319],[139.9438,40.4293]]]]}},{"type":"Feature","properties":{"iso_3166_2":"JP-03"},"geometry":{"type":"MultiPolygon","coordinates":[[[[141.681,40.451],[141.7438,40.3839],[141.842,40.2258],[141.8152,40.2029],[141.8133,40.1836],[141.865,40.1597],[141.8772,40.1393],[141.8474,40.1151],[141.8425,40.0704],[141.9496,39.9966],[141.9614,39.9537],[141.9422,39.9245],[141.9719,39.883],[142.0088,39.7528],[141.9912,39.7305],[141.9783,39.6479],[141.9605,39.6116],[141.9663,39.5985],[142.0125,39.6358],[142.0361,39.639],[142.0308,39.5842],[142.0703,39.5502],[142.0151,39.4887],[141.953,39.4608],[141.9709,39.4433],[141.9963,39.4453],[142.0364,39.4838],[142.0584,39.4663],[142.0399,39.4546],[142.0381,39.424],[141.981,39.4124],[141.9387,39.3851],[141.9641,39.3756],[141.9053,39.3305],[141.9468,39.3304],[141.981,39.351],[141.9837,39.3271],[141.9149,39.2949],[141.9326,39.2752],[141.8991,39.2752],[141.8991,39.2485],[141.947,39.2497],[141.9492,39.228],[141.93,39.2122],[141.8787,39.2076],[141.8937,39.1868],[141.9263,39.1871],[141.9158,39.17],[141.8438,39.1523],[141.9133,39.0977],[141.8905,39.0895],[141.8355,39.1043],[141.8171,39.0909],[141.8718,39.0629],[141.8233,39.0567],[141.8557,39.0261],[141.8474,39.022],[141.7277,39.0363],[141.7482,38.9879],[141.7134,38.9742],[141.7339,38.9605],[141.7171,38.9468],[141.6731,38.981],[141.6936,38.9953],[141.6511,38.9968],[141.6403,38.9675],[141.54,38.9902],[141.4995,38.9868],[141.4824,38.9636],[141.4813,38.9114],[141.4507,38.8728],[141.4433,38.8094],[141.4067,38.7854],[141.3207,38.813],[141.2284,38.7542],[141.1334,38.7988],[141.1125,38.8314],[141.1362,38.8527],[141.1289,38.8636],[140.9927,38.8752],[140.8161,38.9466],[140.7594,38.9517],[140.7984,39.0487],[140.7585,39.0864],[140.7494,39.1133],[140.7639,39.1481],[140.7961,39.1747],[140.7742,39.1958],[140.7605,39.2409],[140.6994,39.2921],[140.6581,39.3923],[140.7391,39.5469],[140.7909,39.5991],[140.8138,39.6439],[140.7902,39.7198],[140.8265,39.7843],[140.7862,39.8173],[140.7832,39.8402],[140.8048,39.8656],[140.854,39.8667],[140.8706,39.8783],[140.8453,39.9582],[140.8378,40.0538],[140.856,40.1041],[140.8554,40.1806],[140.9263,40.244],[141.0134,40.2131],[141.0876,40.2627],[141.3025,40.3554],[141.3569,40.3401],[141.4543,40.3674],[141.5531,40.3592],[141.5878,40.4071],[141.681,40.451]]]]}},{"type":"Feature","properties":{"iso_3166_2":"JP-04"},"geometry":{"type":"MultiPolygon","coordinates":[[[[141.6403,38.9675],[141.6736,38.852],[141.6367,38.8911],[141.5886,38.8822],[141.5871,38.8192],[141.5217,38.7681],[141.5671,38.7288],[141.5664,38.7036],[141.5428,38.7073],[141.4631,38.6614],[141.4739,38.6452],[141.5352,38.632],[141.5114,38.5974],[141.4671,38.5695],[141.5147,38.5348],[141.5291,38.549],[141.5476,38.5186],[141.5428,38.4814],[141.5148,38.508],[141.495,38.4609],[141.508,38.4466],[141.4705,38.4295],[141.4876,38.392],[141.5184,38.4023],[141.5491,38.3852],[141.5204,38.3905],[141.5012,38.3715],[141.5252,38.3599],[141.5428,38.3026],[141.5254,38.2678],[141.4634,38.2992],[141.4671,38.3231],[141.4255,38.3436],[141.4397,38.3715],[141.4281,38.3804],[141.3862,38.3808],[141.3332,38.409],[141.2024,38.3858],[141.1809,38.3712],[141.1697,38.3228],[141.1521,38.3231],[141.1318,38.3715],[141.0794,38.3609],[141.0487,38.3095],[141.0791,38.3116],[141.0806,38.2949],[140.988,38.207],[140.9258,38.0494],[140.9198,37.9652],[140.9332,37.8898],[140.8549,37.876],[140.8496,37.7988],[140.7781,37.786],[140.779,37.7704],[140.733,37.7769],[140.6947,37.7985],[140.6794,37.8599],[140.6516,37.8829],[140.5749,37.9033],[140.498,37.8949],[140.4432,37.943],[140.4046,37.9546],[140.3206,37.9459],[140.2696,37.9642],[140.2823,38.0451],[140.3788,38.0787],[140.4508,38.1521],[140.4744,38.2817],[140.5597,38.3948],[140.585,38.4529],[140.582,38.48],[140.5584,38.5081],[140.5344,38.6312],[140.5411,38.6421],[140.5819,38.6433],[140.599,38.6598],[140.6182,38.7556],[140.5329,38.8817],[140.5776,38.872],[140.642,38.8893],[140.7594,38.9517],[140.8161,38.9466],[140.9927,38.8752],[141.1289,38.8636],[141.1362,38.8527],[141.1125,38.8314],[141.1334,38.7988],[141.2284,38.7542],[141.3207,38.813],[141.4067,38.7854],[141.4433,38.8094],[141.4507,38.8728],[141.4813,38.9114],[141.4824,38.9636],[141.4995,38.9868],[141.54,38.9902],[141.6403,38.9675]]]]}},{"type":"Feature","properties":{"iso_3166_2":"JP-05"},"geometry":{"type":"MultiPolygon","coordinates":[[[[139.8809,39.1151],[139.9168,39.2625],[139.9318,39.2871],[139.9953,39.3273],[140.0486,39.5047],[140.0593,39.7275],[140.0276,39.8245],[139.9665,39.8801],[139.9214,39.8985],[139.8775,39.8928],[139.8438,39.8618],[139.7601,39.8581],[139.7087,39.9243],[139.7042,39.9452],[139.7194,39.9521],[139.701,39.9607],[139.6977,39.9886],[139.7006,40.0056],[139.8221,39.9611],[139.9042,40.0177],[139.978,40.1255],[139.9935,40.1696],[139.9886,40.1911],[140.0112,40.2355],[140.0243,40.355],[139.9438,40.4293],[139.9961,40.4319],[140.0614,40.4641],[140.1219,40.4486],[140.3006,40.4471],[140.409,40.4808],[140.5278,40.4122],[140.5923,40.4252],[140.6479,40.4118],[140.7169,40.4255],[140.788,40.4624],[140.819,40.4923],[140.8499,40.4995],[140.9404,40.4682],[140.9486,40.4497],[140.9366,40.4329],[140.9599,40.4108],[140.9627,40.3686],[140.9263,40.244],[140.8554,40.1806],[140.856,40.1041],[140.8382,40.0664],[140.8453,39.9582],[140.8706,39.8783],[140.854,39.8667],[140.8048,39.8656],[140.7832,39.8402],[140.7862,39.8173],[140.8265,39.7843],[140.7902,39.7198],[140.8138,39.6439],[140.7909,39.5991],[140.7391,39.5469],[140.6581,39.3923],[140.6994,39.2921],[140.7605,39.2409],[140.7742,39.1958],[140.7961,39.1747],[140.7639,39.1481],[140.7494,39.1133],[140.7585,39.0864],[140.7984,39.0487],[140.7594,38.9517],[140.642,38.8893],[140.5441,38.8737],[140.4794,38.8922],[140.4489,38.9154],[140.4212,38.9639],[140.3428,39.0038],[140.2107,39.02],[140.178,39.0412],[140.1043,39.0574],[140.0241,39.1084],[139.9628,39.0982],[139.8809,39.1151]]]]}},{"type":"Feature","properties":{"iso_3166_2":"JP-06"},"geometry":{"type":"MultiPolygon","coordinates":[[[[139.5487,38.545],[139.5992,38.6483],[139.7162,38.7457],[139.7738,38.8171],[139.8809,39.1151],[139.9628,39.0982],[140.0241,39.1084],[140.1262,39.0485],[140.178,39.0412],[140.2107,39.02],[140.3428,39.0038],[140.4051,38.9757],[140.4794,38.8922],[140.5329,38.8817],[140.6182,38.7556],[140.599,38.6598],[140.5819,38.6433],[140.5411,38.6421],[140.5344,38.6312],[140.5584,38.5081],[140.582,38.48],[140.585,38.4529],[140.5597,38.3948],[140.4744,38.2817],[140.4508,38.1521],[140.3788,38.0787],[140.2823,38.0451],[140.2651,37.8723],[140.2737,37.7996],[140.2612,37.769],[140.2145,37.7406],[140.1617,37.7423],[140.1043,37.7227],[140.0492,37.756],[139.9792,37.762],[139.9324,37.8116],[139.7907,37.8058],[139.7246,37.8204],[139.631,37.8793],[139.6174,37.9096],[139.6445,38.0413],[139.6646,38.0719],[139.6874,38.2021],[139.7937,38.2119],[139.8444,38.2409],[139.8712,38.2859],[139.8466,38.3301],[139.8056,38.3544],[139.749,38.3595],[139.7094,38.3877],[139.6962,38.4155],[139.7018,38.4944],[139.5487,38.545]]]]}},{"type":"Feature","properties":{"iso_3166_2":"JP-07"},"geometry":{"type":"MultiPolygon","coordinates":[[[[140.9332,37.8898],[140.9933,37.7998],[141.0222,37.727],[141.0078,37.6789],[141.0282,37.6481],[141.0418,37.3771],[141.0078,37.2268],[141.0078,37.1339],[140.9603,36.9662],[140.9258,36.9389],[140.8352,36.9084],[140.8044,36.886],[140.7973,36.8465],[140.6144,36.8961],[140.57,36.9261],[140.5597,36.9082],[140.5647,36.8632],[140.4812,36.7971],[140.4499,36.7946],[140.286,36.9059],[140.2373,36.9248],[140.2313,37.0],[140.1988,37.0202],[140.1763,37.0589],[140.0981,37.1058],[139.9169,37.1436],[139.8613,37.1304],[139.7912,37.0812],[139.6785,37.0532],[139.4459,36.9561],[139.3596,36.902],[139.2174,36.9295],[139.2406,37.0395],[139.2352,37.1399],[139.2043,37.1921],[139.1784,37.1896],[139.1556,37.2259],[139.1939,37.2966],[139.2082,37.3546],[139.1885,37.4181],[139.2257,37.4469],[139.3814,37.4608],[139.3952,37.4884],[139.4195,37.5033],[139.5536,37.5065],[139.5371,37.6244],[139.7246,37.8204],[139.7907,37.8058],[139.9324,37.8116],[139.9906,37.7565],[140.0492,37.756],[140.1174,37.7226],[140.1617,37.7423],[140.2227,37.7433],[140.2692,37.7805],[140.2696,37.9642],[140.3206,37.9459],[140.4046,37.9546],[140.4432,37.943],[140.498,37.8949],[140.5749,37.9033],[140.6516,37.8829],[140.6794,37.8599],[140.6947,37.7985],[140.7641,37.7702],[140.7846,37.7754],[140.7781,37.786],[140.8496,37.7988],[140.8527,37.8675],[140.8647,37.883],[140.9332,37.8898]]]]}},{"type":"Feature","properties":{"iso_3166_2":"JP-08"},"geometry":{"type":"MultiPolygon","coordinates":[[[[140.7973,36.8465],[140.7419,36.7685],[140.6939,36.618],[140.6235,36.5061],[140.6101,36.4339],[140.6248,36.3636],[140.6169,36.3378],[140.5641,36.2831],[140.5784,36.161],[140.646,36.0133],[140.7893,35.8087],[140.8572,35.7324],[140.799,35.7438],[140.6927,35.8327],[140.5515,35.8886],[140.3928,35.8849],[140.3199,35.8507],[140.1897,35.8429],[140.1273,35.8544],[139.9696,35.9139],[139.9324,35.9385],[139.8055,36.0778],[139.7335,36.0849],[139.6855,36.1255],[139.6537,36.2031],[139.7036,36.2047],[139.782,36.2343],[139.8404,36.3],[139.8949,36.3093],[139.9535,36.3621],[140.0142,36.3649],[140.1143,36.396],[140.1572,36.3925],[140.1811,36.4149],[140.2354,36.5169],[140.221,36.6772],[140.2668,36.7186],[140.2506,36.7613],[140.2373,36.9248],[140.286,36.9059],[140.4499,36.7946],[140.4812,36.7971],[140.5647,36.8632],[140.5597,36.9082],[140.57,36.9261],[140.6144,36.8961],[140.7973,36.8465]]]]}},{"type":"Feature","properties":{"iso_3166_2":"JP-09"},"geometry":{"type":"MultiPolygon","coordinates":[[[[139.4405,36.2685],[139.3435,36.3586],[139.3365,36.3791],[139.4476,36.5727],[139.4359,36.5951],[139.3537,36.6097],[139.3059,36.6447],[139.3304,36.7193],[139.3326,36.7691],[139.3689,36.8143],[139.3364,36.8601],[139.3596,36.902],[139.4459,36.9561],[139.6785,37.0532],[139.7912,37.0812],[139.8859,37.1392],[139.9582,37.1394],[140.0981,37.1058],[140.185,37.0529],[140.1988,37.0202],[140.2345,36.9902],[140.2506,36.7613],[140.2668,36.7186],[140.221,36.6772],[140.2354,36.5169],[140.1703,36.4016],[140.0865,36.3916],[140.0142,36.3649],[139.9535,36.3621],[139.8949,36.3093],[139.8404,36.3],[139.782,36.2343],[139.7036,36.2047],[139.6537,36.2031],[139.5887,36.2601],[139.5028,36.2744],[139.4405,36.2685]]]]}},{"type":"Feature","properties":{"iso_3166_2":"JP-10"},"geometry":{"type":"MultiPolygon","coordinates":[[[[139.092,37.0392],[139.1514,36.9949],[139.1676,36.9602],[139.2146,36.9457],[139.2174,36.9295],[139.3596,36.902],[139.3364,36.8601],[139.3689,36.8143],[139.3326,36.7691],[139.3304,36.7193],[139.3059,36.6447],[139.3537,36.6097],[139.4359,36.5951],[139.4476,36.5727],[139.3409,36.3957],[139.3435,36.3586],[139.4405,36.2685],[139.5028,36.2744],[139.6055,36.2524],[139.6385,36.2257],[139.674,36.1522],[139.5631,36.191],[139.5142,36.1928],[139.4731,36.1781],[139.3786,36.2225],[139.1119,36.2709],[139.0496,36.1965],[139.0338,36.1387],[138.7507,36.0272],[138.7009,35.9695],[138.6145,36.031],[138.6133,36.1164],[138.5703,36.1533],[138.5681,36.1655],[138.5926,36.1698],[138.6047,36.1864],[138.587,36.2702],[138.6299,36.3107],[138.6237,36.384],[138.5838,36.4169],[138.4506,36.3976],[138.3889,36.4345],[138.3768,36.4678],[138.4047,36.5704],[138.4365,36.6254],[138.4939,36.6458],[138.5074,36.6889],[138.6035,36.7065],[138.7227,36.7492],[138.7941,36.7578],[138.8225,36.8036],[138.8901,36.8267],[138.9106,36.8432],[138.9171,36.8785],[138.9647,36.9017],[138.9652,36.9674],[139.0336,36.987],[139.092,37.0392]]]]}},{"type":"Feature","properties":{"iso_3166_2":"JP-11"},"geometry":{"type":"MultiPolygon","coordinates":[[[[139.1119,36.2709],[139.3786,36.2225],[139.4731,36.1781],[139.5142,36.1928],[139.5631,36.191],[139.674,36.1522],[139.7109,36.0983],[139.7528,36.0796],[139.7859,36.0368],[139.8386,35.9229],[139.8665,35.8888],[139.8748,35.8504],[139.8639,35.7781],[139.7578,35.7953],[139.7147,35.7764],[139.6413,35.7771],[139.6036,35.759],[139.5356,35.7516],[139.5229,35.7748],[139.5074,35.7777],[139.4115,35.752],[139.2715,35.809],[139.0602,35.8531],[139.0136,35.8773],[138.9228,35.8354],[138.869,35.8378],[138.7976,35.856],[138.7157,35.8965],[138.7009,35.9695],[138.7414,36.0199],[139.0338,36.1387],[139.0496,36.1965],[139.1119,36.2709]]]]}},{"type":"Feature","properties":{"iso_3166_2":"JP-12"},"geometry":{"type":"MultiPolygon","coordinates":[[[[140.8595,35.7354],[140.8794,35.7205],[140.8607,35.6878],[140.8283,35.714],[140.7208,35.6825],[140.7163,35.6988],[140.6611,35.6886],[140.4835,35.566],[140.4232,35.4906],[140.3859,35.381],[140.4131,35.3012],[140.3942,35.1966],[140.3776,35.1764],[140.3489,35.1805],[140.3212,35.1304],[140.2944,35.1466],[140.2789,35.132],[140.2533,35.1346],[140.2374,35.1124],[140.1346,35.1226],[140.106,35.0976],[140.1008,35.0758],[139.991,35.0205],[139.9641,34.976],[139.9621,34.9409],[139.9264,34.9074],[139.8431,34.9],[139.822,34.9121],[139.8232,34.9349],[139.8108,34.9435],[139.757,34.9563],[139.7528,34.9758],[139.8085,34.9762],[139.87,34.9993],[139.8677,35.0133],[139.8358,35.0272],[139.8496,35.058],[139.8364,35.1352],[139.819,35.1577],[139.8246,35.1991],[139.8652,35.2241],[139.8663,35.2462],[139.8483,35.2717],[139.8493,35.2936],[139.781,35.3181],[139.8242,35.3284],[139.8448,35.3762],[139.8927,35.3642],[139.9079,35.3787],[139.9001,35.4231],[140.0059,35.4734],[140.0719,35.5429],[140.0902,35.5408],[140.102,35.5671],[140.0861,35.5668],[140.0796,35.6036],[139.9836,35.6686],[139.9205,35.6621],[139.9396,35.6369],[139.8972,35.6144],[139.8642,35.6321],[139.886,35.6977],[139.8639,35.7781],[139.8719,35.8694],[139.7965,36.0189],[139.7528,36.0796],[139.8055,36.0778],[139.9324,35.9385],[139.9696,35.9139],[140.1273,35.8544],[140.1897,35.8429],[140.3199,35.8507],[140.3928,35.8849],[140.5515,35.8886],[140.6927,35.8327],[140.799,35.7438],[140.8595,35.7354]]]]}},{"type":"Feature","properties":{"iso_3166_2":"JP-13"},"geometry":{"type":"MultiPolygon","coordinates":[[[[139.8642,35.6321],[139.8503,35.6375],[139.8373,35.6146],[139.8204,35.638],[139.8068,35.6382],[139.7891,35.6032],[139.7653,35.6535],[139.7582,35.6316],[139.7991,35.54],[139.7866,35.5115],[139.6978,35.5381],[139.5394,35.6126],[139.5028,35.6075],[139.4878,35.5918],[139.4545,35.5973],[139.4898,35.5588],[139.4718,35.5418],[139.474,35.4987],[139.4631,35.4898],[139.3991,35.5563],[139.2664,35.5821],[139.2038,35.6237],[139.0358,35.6963],[138.9805,35.7469],[138.9466,35.8166],[138.9228,35.8354],[139.0136,35.8773],[139.0602,35.8531],[139.2715,35.809],[139.4115,35.752],[139.5074,35.7777],[139.5229,35.7748],[139.5356,35.7516],[139.6036,35.759],[139.6413,35.7771],[139.7147,35.7764],[139.7578,35.7953],[139.8639,35.7781],[139.886,35.6977],[139.8642,35.6321]]],[[[139.4182,34.7808],[139.45,34.7568],[139.4538,34.6789],[139.4216,34.6772],[139.3594,34.7023],[139.3512,34.72],[139.3565,34.7972],[139.4182,34.7808]]],[[[139.791,33.1353],[139.8623,33.107],[139.8775,33.0876],[139.8358,33.0398],[139.7876,33.0584],[139.7434,33.1186],[139.7508,33.1452],[139.7678,33.1499],[139.791,33.1353]]],[[[139.4871,34.0608],[139.4944,34.0928],[139.5234,34.1124],[139.5563,34.1135],[139.575,34.09],[139.5613,34.0581],[139.5345,34.0375],[139.5061,34.0359],[139.4871,34.0608]]],[[[139.2704,34.396],[139.301,34.4179],[139.3025,34.3997],[139.2835,34.3369],[139.2678,34.3227],[139.2537,34.3414],[139.2704,34.396]]],[[[139.6228,33.8856],[139.6229,33.8568],[139.5813,33.8625],[139.5925,33.8958],[139.6228,33.8856]]]]}},{"type":"Feature","properties":{"iso_3166_2":"JP-14"},"geometry":{"type":"MultiPolygon","coordinates":[[[[139.7866,35.5115],[139.7141,35.4647],[139.6669,35.4679],[139.6423,35.4543],[139.6874,35.4322],[139.6869,35.4007],[139.65,35.4106],[139.6358,35.4016],[139.6572,35.377],[139.6484,35.2979],[139.6575,35.2866],[139.6644,35.2988],[139.6769,35.2915],[139.6942,35.2687],[139.7342,35.2652],[139.7455,35.249],[139.7259,35.2333],[139.728,35.2071],[139.6888,35.2091],[139.6665,35.1939],[139.6606,35.1782],[139.6851,35.1404],[139.6643,35.1348],[139.6163,35.134],[139.6018,35.2018],[139.624,35.2116],[139.5485,35.2879],[139.5442,35.3079],[139.4867,35.3005],[139.4149,35.3188],[139.2334,35.2853],[139.1835,35.2633],[139.146,35.2352],[139.1424,35.184],[139.1581,35.1365],[139.1208,35.1503],[139.0944,35.1175],[139.0288,35.1356],[138.9839,35.183],[138.9686,35.2303],[139.0003,35.2906],[138.9866,35.3811],[138.9003,35.3809],[138.9333,35.4371],[139.091,35.514],[139.1165,35.5848],[139.1218,35.654],[139.2038,35.6237],[139.2664,35.5821],[139.3773,35.5668],[139.4631,35.4898],[139.474,35.4987],[139.4718,35.5418],[139.4898,35.5588],[139.4545,35.5973],[139.4878,35.5918],[139.5274,35.614],[139.7866,35.5115]]]]}},{"type":"Feature","properties":{"iso_3166_2":"JP-15"},"geometry":{"type":"MultiPolygon","coordinates":[[[[137.6146,36.9751],[137.8967,37.0575],[138.0534,37.1301],[138.0975,37.1711],[138.1644,37.1617],[138.2449,37.1838],[138.3251,37.231],[138.4375,37.322],[138.5506,37.3779],[138.6597,37.5244],[138.7466,37.5969],[138.8094,37.7608],[138.8577,37.8278],[139.0682,37.9551],[139.1325,37.9588],[139.2159,37.9899],[139.3045,38.0419],[139.4251,38.1513],[139.4728,38.4125],[139.5487,38.545],[139.7018,38.4944],[139.6962,38.4155],[139.7094,38.3877],[139.7629,38.3546],[139.8056,38.3544],[139.8622,38.3144],[139.8712,38.2859],[139.8444,38.2409],[139.7937,38.2119],[139.7015,38.2091],[139.6792,38.1876],[139.6646,38.0719],[139.6445,38.0413],[139.6174,37.9096],[139.654,37.8589],[139.7246,37.8204],[139.5371,37.6244],[139.5536,37.5065],[139.4195,37.5033],[139.3952,37.4884],[139.3814,37.4608],[139.2257,37.4469],[139.1885,37.4181],[139.2082,37.3546],[139.1939,37.2966],[139.1556,37.2259],[139.1784,37.1896],[139.2043,37.1921],[139.2352,37.1399],[139.2406,37.0395],[139.2146,36.9457],[139.1676,36.9602],[139.1514,36.9949],[139.1045,37.0356],[139.08,37.0366],[139.054,36.9987],[138.9652,36.9674],[138.9647,36.9017],[138.9171,36.8785],[138.9033,36.8363],[138.8225,36.8036],[138.7941,36.7578],[138.7227,36.7492],[138.6795,36.7307],[138.6668,36.7632],[138.6668,36.8358],[138.5815,36.9085],[138.5552,37.0006],[138.5359,37.01],[138.4814,37.0142],[138.3657,36.9774],[138.3236,36.9256],[138.2863,36.9077],[138.2639,36.8508],[138.2154,36.8598],[138.1641,36.8397],[138.0854,36.8332],[138.0442,36.8072],[138.0074,36.8316],[138.0084,36.8743],[137.9893,36.897],[137.8687,36.9192],[137.8489,36.901],[137.8453,36.8614],[137.8011,36.8034],[137.7327,36.7748],[137.6948,36.912],[137.6146,36.9751]]],[[[138.4592,38.0699],[138.5752,38.0743],[138.5752,38.0351],[138.5132,37.9448],[138.5005,37.9067],[138.3704,37.8288],[138.2651,37.7983],[138.2227,37.8022],[138.2155,37.8303],[138.2832,37.8483],[138.2879,37.906],[138.3425,37.9669],[138.3148,37.9975],[138.2479,37.9785],[138.2327,38.0078],[138.2422,38.0715],[138.3101,38.1681],[138.4286,38.2563],[138.4694,38.3132],[138.5142,38.3231],[138.5071,38.2414],[138.4382,38.0835],[138.4432,38.0519],[138.4592,38.0699]]]]}},{"type":"Feature","properties":{"iso_3166_2":"JP-16"},"geometry":{"type":"MultiPolygon","coordinates":[[[[137.0444,36.9564],[136.9877,36.871],[137.0055,36.8359],[137.0807,36.7901],[137.157,36.7608],[137.1973,36.7581],[137.3333,36.7627],[137.3836,36.8001],[137.4084,36.8452],[137.4271,36.922],[137.4993,36.9557],[137.6146,36.9751],[137.6845,36.9259],[137.7327,36.7748],[137.7283,36.6214],[137.7195,36.5898],[137.6757,36.5488],[137.6765,36.5189],[137.6208,36.4236],[137.5654,36.377],[137.3413,36.4397],[137.2949,36.4211],[137.2763,36.4522],[137.2001,36.4289],[137.1612,36.4368],[137.0465,36.357],[137.0268,36.3195],[136.958,36.2733],[136.9428,36.284],[136.9487,36.3111],[136.9357,36.3266],[136.8505,36.3428],[136.8286,36.3286],[136.8145,36.2945],[136.7732,36.292],[136.7644,36.3216],[136.7732,36.3766],[136.7576,36.419],[136.7836,36.5434],[136.7692,36.6215],[136.787,36.6647],[136.7771,36.7189],[136.8117,36.7526],[136.8598,36.887],[136.8941,36.9257],[136.9793,36.9515],[137.0444,36.9564]]]]}},{"type":"Feature","properties":{"iso_3166_2":"JP-17"},"geometry":{"type":"MultiPolygon","coordinates":[[[[136.2267,36.2856],[136.2984,36.3473],[136.3468,36.3658],[136.4302,36.4325],[136.64,36.6626],[136.6897,36.7308],[136.7606,36.8706],[136.7654,36.9134],[136.7504,36.9257],[136.7676,36.981],[136.7204,37.055],[136.7267,37.1266],[136.7086,37.1499],[136.6963,37.1364],[136.6764,37.1374],[136.6703,37.15],[136.682,37.199],[136.7056,37.2283],[136.6978,37.2395],[136.7332,37.285],[136.7215,37.3253],[136.7491,37.3579],[136.8422,37.3995],[136.8808,37.408],[136.9348,37.3995],[137.0715,37.453],[137.1138,37.4877],[137.2957,37.5315],[137.341,37.5171],[137.3561,37.4532],[137.2536,37.4291],[137.2374,37.3799],[137.2489,37.3573],[137.2675,37.3551],[137.2653,37.3398],[137.2302,37.2921],[137.1656,37.3008],[137.1087,37.2835],[137.0713,37.2381],[137.0707,37.2186],[137.0142,37.1849],[136.9459,37.2172],[136.96,37.2347],[136.9511,37.2345],[136.8926,37.1733],[136.8802,37.1442],[136.8957,37.1389],[136.8932,37.1175],[136.8687,37.1109],[136.8609,37.0768],[136.9336,37.0798],[136.9801,37.0469],[137.004,37.0555],[137.0243,37.0954],[137.0471,37.0988],[137.0544,36.9667],[136.8941,36.9257],[136.8598,36.887],[136.8117,36.7526],[136.7771,36.7189],[136.787,36.6647],[136.7692,36.6215],[136.7836,36.5434],[136.7584,36.4404],[136.7732,36.3766],[136.7644,36.3216],[136.7842,36.273],[136.8168,36.2352],[136.7625,36.1616],[136.7453,36.1062],[136.7209,36.0748],[136.6372,36.0662],[136.533,36.1399],[136.4169,36.1405],[136.3229,36.1663],[136.3052,36.1841],[136.2866,36.2424],[136.2267,36.2856]]],[[[137.0481,37.1523],[137.0387,37.1201],[136.9473,37.097],[136.9053,37.1436],[136.9115,37.1509],[136.9284,37.1378],[136.9736,37.1533],[136.999,37.1395],[137.0418,37.1597],[137.0481,37.1523]]]]}},{"type":"Feature","properties":{"iso_3166_2":"JP-18"},"geometry":{"type":"MultiPolygon","coordinates":[[[[135.4788,35.5437],[135.4883,35.5207],[135.5122,35.548],[135.511,35.4982],[135.5583,35.4918],[135.6489,35.5428],[135.6698,35.5344],[135.6419,35.5217],[135.6221,35.4866],[135.6451,35.4802],[135.738,35.4987],[135.7482,35.5335],[135.7208,35.5223],[135.6916,35.5459],[135.7061,35.5621],[135.7384,35.5705],[135.794,35.5314],[135.8343,35.5344],[135.8043,35.5752],[135.8547,35.579],[135.8117,35.6434],[135.8678,35.6178],[135.9018,35.6244],[135.9194,35.6082],[135.9509,35.6289],[135.9806,35.6305],[135.9817,35.6436],[135.9635,35.6554],[135.9744,35.6909],[135.9701,35.703],[135.9564,35.7006],[135.956,35.7283],[136.0197,35.7653],[136.0468,35.7037],[136.027,35.6809],[136.0475,35.6588],[136.0691,35.6619],[136.0924,35.7152],[136.0995,35.7757],[136.0705,35.8247],[135.9935,35.8851],[135.9944,35.9359],[135.9573,35.9731],[135.9632,35.9999],[136.0001,36.0242],[136.0436,36.1108],[136.1202,36.1998],[136.1348,36.2246],[136.1242,36.2532],[136.1626,36.2522],[136.2267,36.2856],[136.2866,36.2424],[136.3052,36.1841],[136.3229,36.1663],[136.4169,36.1405],[136.533,36.1399],[136.6372,36.0662],[136.7209,36.0748],[136.7012,35.9316],[136.7659,35.8983],[136.8021,35.8504],[136.7956,35.8244],[136.7577,35.784],[136.612,35.7793],[136.508,35.7618],[136.4842,35.7391],[136.3645,35.7661],[136.3242,35.7617],[136.3043,35.7442],[136.2899,35.6953],[136.2573,35.6456],[136.1673,35.675],[136.1277,35.6635],[136.1453,35.571],[136.1355,35.5579],[136.0958,35.5585],[136.0808,35.5143],[136.0157,35.5033],[135.9795,35.4804],[135.931,35.5026],[135.901,35.4138],[135.8765,35.3816],[135.8175,35.3847],[135.7429,35.3376],[135.6883,35.3304],[135.5188,35.3734],[135.4474,35.4521],[135.4535,35.4804],[135.4418,35.5177],[135.4788,35.5437]]]]}},{"type":"Feature","properties":{"iso_3166_2":"JP-19"},"geometry":{"type":"MultiPolygon","coordinates":[[[[138.3603,35.9578],[138.4282,35.9391],[138.4528,35.8903],[138.5729,35.8946],[138.6345,35.8533],[138.7157,35.8965],[138.8306,35.8455],[138.9228,35.8354],[138.9466,35.8166],[138.9927,35.7325],[139.0358,35.6963],[139.1218,35.654],[139.0992,35.5257],[139.0805,35.5049],[138.9333,35.4371],[138.9003,35.3809],[138.8297,35.3647],[138.6972,35.3508],[138.5434,35.417],[138.5277,35.3969],[138.5057,35.2942],[138.5071,35.1943],[138.4724,35.1617],[138.419,35.1651],[138.3749,35.2038],[138.343,35.2921],[138.2359,35.3037],[138.2266,35.3676],[138.2413,35.5178],[138.2137,35.6118],[138.182,35.6478],[138.1685,35.6988],[138.2027,35.7471],[138.1802,35.7867],[138.2165,35.8504],[138.2789,35.8549],[138.3603,35.9578]]]]}},{"type":"Feature","properties":{"iso_3166_2":"JP-20"},"geometry":{"type":"MultiPolygon","coordinates":[[[[138.6795,36.7307],[138.4992,36.6821],[138.4939,36.6458],[138.4307,36.6181],[138.4047,36.5704],[138.3768,36.4678],[138.3889,36.4345],[138.4384,36.4003],[138.569,36.4184],[138.6148,36.4003],[138.6327,36.3239],[138.587,36.2702],[138.6047,36.1864],[138.5926,36.1698],[138.5681,36.1655],[138.5703,36.1533],[138.6133,36.1164],[138.6145,36.031],[138.7009,35.9695],[138.7157,35.8965],[138.6628,35.8594],[138.623,35.854],[138.5853,35.892],[138.5189,35.8995],[138.4528,35.8903],[138.4282,35.9391],[138.3603,35.9578],[138.2789,35.8549],[138.2165,35.8504],[138.1802,35.7867],[138.2027,35.7471],[138.1685,35.6988],[138.1961,35.6279],[138.1771,35.5786],[138.1359,35.5471],[138.1404,35.4699],[138.1094,35.4236],[138.1268,35.3845],[138.1125,35.3574],[137.8056,35.1945],[137.6624,35.209],[137.6167,35.1927],[137.5652,35.1931],[137.5387,35.2372],[137.5784,35.3284],[137.5645,35.3711],[137.6044,35.3845],[137.5852,35.4951],[137.5282,35.5392],[137.51,35.59],[137.5108,35.6346],[137.444,35.7334],[137.3689,35.7775],[137.3333,35.7838],[137.3232,35.8016],[137.3928,35.8806],[137.4628,35.8894],[137.5773,36.0312],[137.5821,36.0568],[137.5394,36.1179],[137.5649,36.1762],[137.5629,36.2106],[137.6063,36.2604],[137.6245,36.315],[137.6082,36.3471],[137.5654,36.377],[137.6208,36.4236],[137.6765,36.5189],[137.6757,36.5488],[137.7195,36.5898],[137.7341,36.668],[137.7327,36.7748],[137.8011,36.8034],[137.8453,36.8614],[137.8489,36.901],[137.8687,36.9192],[137.9893,36.897],[138.0084,36.8743],[138.0074,36.8316],[138.0442,36.8072],[138.0854,36.8332],[138.1641,36.8397],[138.2154,36.8598],[138.2639,36.8508],[138.2863,36.9077],[138.3236,36.9256],[138.3657,36.9774],[138.4997,37.0154],[138.5552,37.0006],[138.5815,36.9085],[138.6668,36.8358],[138.6668,36.7632],[138.6795,36.7307]]]]}},{"type":"Feature","properties":{"iso_3166_2":"JP-21"},"geometry":{"type":"MultiPolygon","coordinates":[[[[137.2763,36.4522],[137.2949,36.4211],[137.3413,36.4397],[137.5654,36.377],[137.6082,36.3471],[137.6245,36.315],[137.6063,36.2604],[137.5629,36.2106],[137.5649,36.1762],[137.5394,36.1179],[137.5821,36.0568],[137.5773,36.0312],[137.4628,35.8894],[137.3928,35.8806],[137.3232,35.8016],[137.3333,35.7838],[137.3689,35.7775],[137.444,35.7334],[137.5108,35.6346],[137.51,35.59],[137.5282,35.5392],[137.5852,35.4951],[137.6044,35.3845],[137.5645,35.3711],[137.5784,35.3284],[137.5479,35.2704],[137.422,35.216],[137.2932,35.2678],[137.1686,35.2422],[137.0708,35.2849],[137.0131,35.3544],[136.9529,35.3841],[136.8059,35.3421],[136.761,35.3475],[136.6801,35.2364],[136.6734,35.1388],[136.5847,35.1744],[136.5283,35.2294],[136.3988,35.2026],[136.3762,35.2315],[136.3754,35.2663],[136.4076,35.3934],[136.3974,35.4528],[136.3594,35.5339],[136.3124,35.5417],[136.2573,35.6456],[136.2899,35.6953],[136.3043,35.7442],[136.3503,35.7679],[136.4842,35.7391],[136.508,35.7618],[136.7686,35.791],[136.8021,35.8504],[136.779,35.887],[136.7166,35.9152],[136.6986,35.9435],[136.7209,36.0748],[136.7453,36.1062],[136.7625,36.1616],[136.8168,36.2352],[136.7732,36.292],[136.8145,36.2945],[136.8286,36.3286],[136.8505,36.3428],[136.9357,36.3266],[136.9487,36.3111],[136.9428,36.284],[136.958,36.2733],[137.0268,36.3195],[137.0465,36.357],[137.1458,36.4327],[137.2001,36.4289],[137.2763,36.4522]]]]}},{"type":"Feature","properties":{"iso_3166_2":"JP-22"},"geometry":{"type":"MultiPolygon","coordinates":[[[[139.0944,35.1175],[139.0759,35.0532],[139.106,35.0494],[139.0865,34.9973],[139.1006,34.9748],[139.1307,34.9652],[139.1426,34.9423],[139.1409,34.8706],[139.0991,34.8561],[139.0517,34.7778],[138.9988,34.7333],[138.9856,34.6833],[138.9937,34.6498],[138.9727,34.6458],[138.9408,34.6611],[138.8353,34.5959],[138.7714,34.6473],[138.7739,34.671],[138.7466,34.6915],[138.744,34.7289],[138.7743,34.7513],[138.7481,34.8132],[138.7622,34.8464],[138.7538,34.8795],[138.7898,34.9068],[138.7619,34.9799],[138.7861,35.0264],[138.8938,35.02],[138.9076,35.0307],[138.8033,35.1219],[138.6962,35.139],[138.6373,35.116],[138.5868,35.1144],[138.5541,35.0961],[138.5277,35.0508],[138.4979,35.0326],[138.4949,35.0007],[138.507,34.9911],[138.507,35.0119],[138.5316,35.0169],[138.5143,34.9802],[138.3534,34.9041],[138.3283,34.8553],[138.3408,34.8265],[138.2932,34.7658],[138.216,34.7123],[138.1936,34.6415],[138.2009,34.6216],[138.2403,34.6026],[138.2333,34.5946],[138.0472,34.6546],[137.9676,34.6665],[137.8928,34.6677],[137.7922,34.6394],[137.6835,34.6708],[137.4679,34.671],[137.4667,34.7525],[137.4884,34.8098],[137.5719,34.841],[137.618,34.8793],[137.6704,34.9472],[137.6849,35.0025],[137.7702,35.0812],[137.7961,35.1365],[137.8056,35.1945],[137.9398,35.2731],[137.9962,35.2913],[138.0278,35.319],[138.0855,35.337],[138.1231,35.3709],[138.1094,35.4236],[138.1387,35.4601],[138.1359,35.5471],[138.1771,35.5786],[138.1961,35.6279],[138.2137,35.6118],[138.2413,35.5178],[138.2266,35.3676],[138.2359,35.3037],[138.343,35.2921],[138.3749,35.2038],[138.419,35.1651],[138.4724,35.1617],[138.5071,35.1943],[138.5057,35.2942],[138.5233,35.3814],[138.534,35.4097],[138.5565,35.4175],[138.6972,35.3508],[138.9646,35.3884],[138.9866,35.3811],[139.0003,35.2906],[138.9706,35.2498],[138.9736,35.205],[139.0193,35.1412],[139.0944,35.1175]]]]}},{"type":"Feature","properties":{"iso_3166_2":"JP-23"},"geometry":{"type":"MultiPolygon","coordinates":[[[[137.4679,34.671],[137.3397,34.6474],[137.1407,34.5893],[137.0161,34.5788],[137.0728,34.6646],[137.1108,34.6254],[137.2597,34.7041],[137.2823,34.7312],[137.2982,34.7282],[137.3035,34.6894],[137.3093,34.7257],[137.3408,34.7265],[137.3123,34.7367],[137.3215,34.7734],[137.28,34.8081],[137.2228,34.8163],[137.2077,34.8026],[137.1944,34.807],[137.1887,34.7701],[137.1708,34.7639],[137.1715,34.7841],[137.0182,34.7833],[136.9582,34.8324],[136.9826,34.8983],[136.9789,34.9242],[136.931,34.8464],[136.9156,34.776],[136.9373,34.746],[136.9626,34.735],[136.9715,34.6964],[136.856,34.7398],[136.8429,34.7691],[136.8643,34.8365],[136.8434,34.8712],[136.8277,34.8719],[136.8235,34.9549],[136.8799,35.0438],[136.8857,35.0892],[136.8718,35.0934],[136.8489,35.0395],[136.8432,35.075],[136.8301,35.0788],[136.8393,35.0325],[136.813,35.0274],[136.809,35.0488],[136.7995,35.0486],[136.7979,35.0241],[136.7518,35.0262],[136.6734,35.1388],[136.6801,35.2364],[136.761,35.3475],[136.8059,35.3421],[136.9529,35.3841],[137.0131,35.3544],[137.0708,35.2849],[137.1686,35.2422],[137.2932,35.2678],[137.422,35.216],[137.5479,35.2704],[137.5387,35.2372],[137.5751,35.1882],[137.6624,35.209],[137.8056,35.1945],[137.7961,35.1365],[137.7702,35.0812],[137.6849,35.0025],[137.6704,34.9472],[137.618,34.8793],[137.5719,34.841],[137.4884,34.8098],[137.4667,34.7525],[137.4679,34.671]]]]}},{"type":"Feature","properties":{"iso_3166_2":"JP-24"},"geometry":{"type":"MultiPolygon","coordinates":[[[[136.7518,35.0262],[136.7256,35.0272],[136.6592,34.984],[136.6424,34.9481],[136.6617,34.9405],[136.6456,34.9298],[136.6393,34.889],[136.5349,34.7657],[136.5195,34.6809],[136.5464,34.6516],[136.5401,34.6157],[136.551,34.602],[136.633,34.5911],[136.7523,34.5133],[136.8145,34.486],[136.8523,34.4855],[136.8833,34.4376],[136.916,34.434],[136.9258,34.4129],[136.9168,34.3762],[136.8931,34.3824],[136.8753,34.3693],[136.9099,34.355],[136.8833,34.3283],[136.8978,34.301],[136.8957,34.2669],[136.8355,34.2464],[136.7942,34.2531],[136.7752,34.2619],[136.7734,34.2731],[136.7879,34.2774],[136.8416,34.2595],[136.8355,34.2805],[136.8485,34.2731],[136.8562,34.2942],[136.8464,34.3076],[136.8075,34.3078],[136.8075,34.2873],[136.7734,34.3078],[136.7566,34.2961],[136.7026,34.2952],[136.7234,34.3313],[136.7068,34.3343],[136.6499,34.3141],[136.6681,34.3096],[136.667,34.2979],[136.6081,34.2646],[136.5925,34.2626],[136.5741,34.2805],[136.5606,34.2595],[136.523,34.2731],[136.5059,34.2464],[136.5148,34.2298],[136.4717,34.239],[136.4165,34.2043],[136.3367,34.184],[136.299,34.1543],[136.297,34.1257],[136.319,34.1088],[136.3084,34.09],[136.2835,34.0813],[136.2527,34.1086],[136.2185,34.0751],[136.2438,34.0642],[136.2798,34.0173],[136.2732,33.9714],[136.2473,33.9715],[136.2322,33.9931],[136.2048,33.9714],[136.2276,33.9617],[136.2285,33.9384],[136.2111,33.9448],[136.1989,33.9209],[136.1648,33.9162],[136.137,33.8906],[136.1047,33.8914],[136.0693,33.847],[135.9937,33.6863],[135.9508,33.7039],[135.8632,33.7871],[135.8477,33.8381],[135.8754,33.8508],[135.8914,33.8827],[135.9575,33.918],[136.0176,34.0048],[136.0978,34.0116],[136.0858,34.05],[136.1094,34.1262],[136.1187,34.2411],[136.0712,34.3938],[136.0956,34.42],[136.1775,34.4386],[136.2027,34.4588],[136.2112,34.4864],[136.1536,34.5338],[136.1142,34.5364],[136.0599,34.5629],[136.0583,34.6191],[136.0382,34.6372],[136.0723,34.6563],[136.0591,34.7025],[136.0365,34.7153],[136.0031,34.7737],[136.082,34.8009],[136.1128,34.8331],[136.1004,34.8542],[136.1127,34.871],[136.2405,34.8631],[136.3426,34.8927],[136.3816,34.9264],[136.4072,34.9669],[136.4432,35.1318],[136.3988,35.2026],[136.5283,35.2294],[136.5847,35.1744],[136.6734,35.1388],[136.7518,35.0262]]]]}},{"type":"Feature","properties":{"iso_3166_2":"JP-25"},"geometry":{"type":"MultiPolygon","coordinates":[[[[136.2573,35.6456],[136.3124,35.5417],[136.3594,35.5339],[136.3974,35.4528],[136.4076,35.3934],[136.3762,35.2315],[136.4432,35.1318],[136.4072,34.9669],[136.3625,34.9058],[136.3116,34.8793],[136.2405,34.8631],[136.1127,34.871],[136.1004,34.8542],[136.1128,34.8331],[136.082,34.8009],[136.0031,34.7737],[135.9885,34.8136],[135.9289,34.8603],[135.8588,34.8801],[135.8535,34.934],[135.8146,35.0011],[135.8366,35.1208],[135.8188,35.2124],[135.827,35.2633],[135.7429,35.3376],[135.8175,35.3847],[135.8765,35.3816],[135.901,35.4138],[135.931,35.5026],[135.9795,35.4804],[136.0157,35.5033],[136.0808,35.5143],[136.0958,35.5585],[136.1355,35.5579],[136.1463,35.5821],[136.1277,35.6635],[136.1673,35.675],[136.2573,35.6456]]]]}},{"type":"Feature","properties":{"iso_3166_2":"JP-26"},"geometry":{"type":"MultiPolygon","coordinates":[[[[134.8632,35.6583],[134.927,35.6412],[134.9879,35.6898],[135.029,35.6929],[135.0858,35.726],[135.0841,35.739],[135.2268,35.7723],[135.2925,35.7117],[135.3062,35.6715],[135.2993,35.6579],[135.2792,35.6685],[135.2588,35.6568],[135.1882,35.565],[135.1883,35.5453],[135.2067,35.5415],[135.2081,35.5591],[135.2482,35.5917],[135.2534,35.5713],[135.2709,35.5629],[135.2398,35.558],[135.2387,35.542],[135.3015,35.5132],[135.3244,35.5244],[135.3355,35.5082],[135.3153,35.4668],[135.319,35.447],[135.3525,35.487],[135.4024,35.4822],[135.4024,35.507],[135.3502,35.5103],[135.3378,35.5375],[135.3613,35.5542],[135.416,35.5617],[135.4632,35.6033],[135.4524,35.5718],[135.4829,35.5592],[135.4764,35.5395],[135.4418,35.5177],[135.4535,35.4804],[135.4474,35.4521],[135.5188,35.3734],[135.6883,35.3304],[135.7429,35.3376],[135.827,35.2633],[135.8188,35.2124],[135.8366,35.1208],[135.8146,35.0011],[135.8535,34.934],[135.8588,34.8801],[135.9289,34.8603],[135.9885,34.8136],[136.0365,34.7153],[136.0292,34.7036],[136.0088,34.6959],[135.9099,34.7242],[135.8323,34.6991],[135.7527,34.7263],[135.7063,34.7595],[135.7084,34.8112],[135.6464,34.8992],[135.598,34.9197],[135.5828,34.9465],[135.5607,34.9403],[135.5637,34.916],[135.5382,34.9098],[135.4859,34.9381],[135.444,34.9837],[135.3633,34.9975],[135.342,35.0148],[135.3386,35.0302],[135.397,35.0643],[135.3964,35.0879],[135.3792,35.1079],[135.3439,35.1292],[135.3045,35.1287],[135.2744,35.1522],[135.2013,35.1701],[135.147,35.2472],[135.0778,35.2336],[134.9367,35.2938],[134.9209,35.3182],[134.9302,35.3796],[134.9495,35.3865],[135.0148,35.3661],[135.0448,35.395],[135.0438,35.5027],[135.0238,35.5189],[134.9536,35.4969],[134.9109,35.5128],[134.8677,35.5707],[134.8632,35.6583]]]]}},{"type":"Feature","properties":{"iso_3166_2":"JP-27"},"geometry":{"type":"MultiPolygon","coordinates":[[[[135.0853,34.2992],[135.105,34.3181],[135.209,34.3423],[135.2566,34.3768],[135.3726,34.4845],[135.3732,34.5189],[135.4083,34.541],[135.4158,34.6096],[135.4036,34.6589],[135.4129,34.6921],[135.4485,34.7292],[135.4332,34.7938],[135.4398,34.9037],[135.3668,34.9534],[135.3633,34.9975],[135.444,34.9837],[135.4859,34.9381],[135.5382,34.9098],[135.5637,34.916],[135.5571,34.9329],[135.5744,34.9505],[135.598,34.9197],[135.6464,34.8992],[135.7148,34.7853],[135.622,34.5534],[135.674,34.4641],[135.6654,34.3811],[135.5089,34.3309],[135.4569,34.3346],[135.1885,34.2743],[135.0997,34.2805],[135.0853,34.2992]]]]}},{"type":"Feature","properties":{"iso_3166_2":"JP-28"},"geometry":{"type":"MultiPolygon","coordinates":[[[[134.3656,35.6],[134.537,35.6722],[134.5902,35.6594],[134.7983,35.6656],[134.8423,35.6454],[134.8632,35.6583],[134.8677,35.5707],[134.9109,35.5128],[134.9536,35.4969],[135.0238,35.5189],[135.0438,35.5027],[135.0448,35.395],[135.0148,35.3661],[134.9495,35.3865],[134.9302,35.3796],[134.9268,35.3024],[135.0778,35.2336],[135.1527,35.2448],[135.2013,35.1701],[135.2744,35.1522],[135.3045,35.1287],[135.3439,35.1292],[135.3891,35.1002],[135.397,35.0643],[135.3386,35.022],[135.3633,34.9975],[135.3668,34.9534],[135.4398,34.9037],[135.4325,34.8162],[135.4425,34.7161],[135.3812,34.6813],[135.3413,34.7085],[135.2869,34.7054],[135.2873,34.68],[135.2536,34.677],[135.2549,34.7009],[135.2201,34.6908],[135.2423,34.6508],[135.2109,34.6552],[135.2044,34.6773],[135.186,34.6749],[135.184,34.6512],[135.0458,34.625],[135.0168,34.6422],[134.9603,34.6436],[134.937,34.6674],[134.7444,34.7665],[134.6963,34.7762],[134.5491,34.7733],[134.5191,34.7597],[134.4959,34.7646],[134.4912,34.7871],[134.4229,34.7256],[134.3814,34.7398],[134.3578,34.7274],[134.354,34.7051],[134.3046,34.7091],[134.3164,34.7441],[134.3106,34.7703],[134.2568,34.8359],[134.2636,35.001],[134.3133,35.041],[134.3941,35.1407],[134.3957,35.2292],[134.4485,35.2187],[134.4922,35.2443],[134.5101,35.2719],[134.5061,35.3223],[134.4444,35.4387],[134.4168,35.5442],[134.3984,35.5786],[134.3656,35.6]]],[[[135.0027,34.6084],[135.0301,34.5788],[135.0033,34.5516],[134.9841,34.5058],[134.903,34.419],[134.8958,34.3727],[134.8997,34.349],[134.9583,34.2704],[134.8339,34.2266],[134.8,34.2008],[134.7287,34.1909],[134.7269,34.21],[134.7022,34.2212],[134.7239,34.2526],[134.6881,34.2436],[134.6572,34.2882],[134.6833,34.3282],[134.7208,34.3298],[134.799,34.4468],[134.8504,34.4757],[134.8838,34.5295],[134.9381,34.5509],[134.9813,34.6024],[135.0027,34.6084]]]]}},{"type":"Feature","properties":{"iso_3166_2":"JP-29"},"geometry":{"type":"MultiPolygon","coordinates":[[[[136.0365,34.7153],[136.0591,34.7025],[136.0723,34.6563],[136.0382,34.6372],[136.0583,34.6191],[136.0599,34.5629],[136.1142,34.5364],[136.1536,34.5338],[136.2112,34.4864],[136.2027,34.4588],[136.1775,34.4386],[136.0956,34.42],[136.0712,34.3938],[136.1187,34.2411],[136.1094,34.1262],[136.0858,34.05],[136.1015,34.0185],[136.0176,34.0048],[135.9575,33.918],[135.8914,33.8827],[135.8754,33.8508],[135.8477,33.8381],[135.8173,33.8722],[135.7852,33.879],[135.7471,33.8691],[135.6822,33.8799],[135.6186,33.8571],[135.5983,33.8901],[135.6133,33.9549],[135.6065,33.9772],[135.543,34.0646],[135.64,34.1935],[135.7084,34.2129],[135.6628,34.2849],[135.6468,34.3718],[135.6707,34.3885],[135.674,34.4641],[135.622,34.5534],[135.7063,34.7595],[135.7527,34.7263],[135.8323,34.6991],[135.9099,34.7242],[136.0088,34.6959],[136.0365,34.7153]]]]}},{"type":"Feature","properties":{"iso_3166_2":"JP-30"},"geometry":{"type":"MultiPolygon","coordinates":[[[[135.9937,33.6863],[135.9807,33.653],[135.9371,33.6175],[135.9387,33.6039],[135.9599,33.5931],[135.9461,33.5778],[135.8848,33.529],[135.8092,33.505],[135.783,33.4729],[135.7893,33.4411],[135.772,33.4449],[135.76,33.4333],[135.7538,33.4516],[135.7708,33.4682],[135.7656,33.4815],[135.6375,33.4946],[135.4448,33.5508],[135.3873,33.5941],[135.3923,33.6189],[135.375,33.6431],[135.3277,33.6712],[135.3429,33.6939],[135.4024,33.7011],[135.3916,33.7136],[135.3121,33.7655],[135.2326,33.782],[135.2298,33.7986],[135.1733,33.8383],[135.1528,33.8759],[135.1187,33.8929],[135.0589,33.88],[135.0665,33.8964],[135.0574,33.9013],[135.0791,33.906],[135.0696,33.9307],[135.1012,33.9544],[135.0773,33.959],[135.0757,33.9775],[135.1532,34.0098],[135.1616,34.025],[135.1531,34.0486],[135.0945,34.0676],[135.1287,34.1086],[135.1228,34.1371],[135.187,34.1359],[135.19,34.1496],[135.1659,34.1867],[135.1488,34.1856],[135.1196,34.2422],[135.061,34.2673],[135.0713,34.2858],[135.0853,34.2992],[135.0997,34.2805],[135.1885,34.2743],[135.4569,34.3346],[135.5089,34.3309],[135.6011,34.3685],[135.6468,34.3718],[135.6628,34.2849],[135.7084,34.2129],[135.64,34.1935],[135.543,34.0646],[135.6065,33.9772],[135.6029,33.8751],[135.6282,33.856],[135.6822,33.8799],[135.8173,33.8722],[135.8477,33.8381],[135.8632,33.7871],[135.9508,33.7039],[135.9937,33.6863]]]]}},{"type":"Feature","properties":{"iso_3166_2":"JP-31"},"geometry":{"type":"MultiPolygon","coordinates":[[[[133.2575,35.5362],[133.2647,35.4962],[133.3296,35.4655],[133.4002,35.4543],[133.4174,35.4565],[133.4412,35.491],[133.5802,35.5336],[133.7311,35.5029],[133.9115,35.5146],[134.0084,35.537],[134.0348,35.5194],[134.2378,35.5467],[134.2816,35.5649],[134.2939,35.5859],[134.3656,35.6],[134.3984,35.5786],[134.4168,35.5442],[134.4444,35.4387],[134.5061,35.3223],[134.5101,35.2719],[134.4922,35.2443],[134.4485,35.2187],[134.3957,35.2292],[134.3082,35.1866],[134.2473,35.1858],[134.1746,35.1616],[134.1136,35.2607],[134.0812,35.2792],[134.0066,35.2879],[133.9869,35.325],[133.9291,35.3194],[133.8235,35.239],[133.7558,35.2885],[133.592,35.321],[133.5736,35.3062],[133.5447,35.2409],[133.5129,35.221],[133.5014,35.177],[133.3972,35.1566],[133.3829,35.1418],[133.3779,35.1058],[133.3601,35.0953],[133.2895,35.0725],[133.2643,35.0506],[133.1279,35.0673],[133.1723,35.1578],[133.1644,35.2059],[133.2716,35.2558],[133.2998,35.2824],[133.3039,35.3893],[133.3251,35.4161],[133.2499,35.4561],[133.2008,35.5165],[133.2575,35.5362]]]]}},{"type":"Feature","properties":{"iso_3166_2":"JP-32"},"geometry":{"type":"MultiPolygon","coordinates":[[[[131.6756,34.6721],[131.7461,34.6754],[131.8584,34.7145],[131.8738,34.7592],[131.8963,34.7629],[132.0346,34.8766],[132.0539,34.8723],[132.0633,34.9075],[132.2365,35.0348],[132.3168,35.0623],[132.3266,35.0921],[132.3799,35.125],[132.4081,35.1751],[132.5297,35.2449],[132.5319,35.2577],[132.6387,35.2946],[132.6633,35.3295],[132.674,35.3854],[132.6708,35.3995],[132.6311,35.4198],[132.6238,35.4311],[132.6354,35.441],[132.7486,35.4515],[132.7255,35.4708],[132.8377,35.5061],[132.9697,35.517],[132.9732,35.5419],[133.0335,35.546],[133.0518,35.5737],[133.0814,35.5753],[133.0913,35.6015],[133.1565,35.5626],[133.2247,35.5829],[133.228,35.5647],[133.3088,35.5772],[133.326,35.5685],[133.2008,35.5165],[133.2499,35.4561],[133.3257,35.4115],[133.3039,35.3893],[133.2932,35.2692],[133.1644,35.2059],[133.1723,35.1578],[133.1279,35.0673],[133.0376,35.063],[132.994,35.0805],[132.954,35.0692],[132.854,35.0733],[132.7471,34.9622],[132.6809,34.9304],[132.6425,34.8947],[132.6414,34.8839],[132.6799,34.8562],[132.6679,34.8382],[132.5091,34.7895],[132.4241,34.7997],[132.3904,34.7789],[132.3522,34.7869],[132.2894,34.7677],[132.2479,34.7829],[132.1438,34.705],[132.1508,34.6684],[132.1098,34.5776],[132.0413,34.4952],[132.0504,34.4578],[131.9916,34.4134],[132.002,34.3639],[131.9623,34.3397],[131.9468,34.306],[131.9081,34.3196],[131.8127,34.2996],[131.7714,34.3143],[131.7513,34.3635],[131.7685,34.4161],[131.6965,34.429],[131.6792,34.4471],[131.6688,34.5098],[131.7033,34.581],[131.6756,34.6721]]],[[[133.367,36.2742],[133.3818,36.2577],[133.3792,36.2082],[133.3602,36.1916],[133.3435,36.2043],[133.326,36.1916],[133.3413,36.175],[133.326,36.1581],[133.2564,36.165],[133.1878,36.2161],[133.2095,36.2972],[133.292,36.3425],[133.2928,36.3306],[133.3202,36.3218],[133.367,36.2742]]],[[[133.0742,36.1279],[133.0876,36.127],[133.0872,36.1108],[133.0584,36.1032],[133.0558,36.0618],[133.0449,36.0551],[133.0198,36.0606],[133.01,36.0815],[132.9904,36.0771],[133.0041,36.0483],[132.995,36.0382],[132.9494,36.062],[133.0387,36.1308],[133.0742,36.1279]]],[[[133.1213,36.1098],[133.1354,36.0895],[133.1232,36.0629],[133.0791,36.0209],[133.0813,36.0801],[133.0935,36.1028],[133.1213,36.1098]]],[[[133.0125,36.0148],[133.0242,36.0256],[133.0452,36.02],[133.0791,35.9936],[133.0278,35.9936],[133.0125,36.0148]]]]}},{"type":"Feature","properties":{"iso_3166_2":"JP-33"},"geometry":{"type":"MultiPolygon","coordinates":[[[[134.3046,34.7091],[134.2088,34.728],[134.2168,34.7119],[134.2788,34.6982],[134.2448,34.6915],[134.2202,34.6635],[134.1553,34.6369],[134.1895,34.6369],[134.148,34.597],[134.0837,34.5815],[134.0474,34.6046],[133.9944,34.6087],[133.9367,34.5872],[133.9251,34.5779],[133.9426,34.5551],[134.0007,34.5945],[134.0357,34.5934],[134.0462,34.5815],[134.0457,34.5639],[134.0051,34.5338],[134.012,34.5201],[133.9832,34.5286],[133.9363,34.4512],[133.8218,34.4621],[133.8264,34.4376],[133.7944,34.4429],[133.7689,34.488],[133.7305,34.507],[133.7234,34.5276],[133.4701,34.424],[133.5225,34.4831],[133.5011,34.4922],[133.443,34.4727],[133.447,34.5176],[133.3981,34.5932],[133.3931,34.649],[133.3655,34.7078],[133.3622,34.7927],[133.3101,34.8769],[133.3041,34.9974],[133.2643,35.0506],[133.2895,35.0725],[133.3779,35.1058],[133.3829,35.1418],[133.3972,35.1566],[133.5014,35.177],[133.5129,35.221],[133.5447,35.2409],[133.5736,35.3062],[133.592,35.321],[133.7558,35.2885],[133.8235,35.239],[133.9291,35.3194],[133.9869,35.325],[134.0066,35.2879],[134.0812,35.2792],[134.1136,35.2607],[134.1746,35.1616],[134.2473,35.1858],[134.3082,35.1866],[134.3957,35.2292],[134.3941,35.1407],[134.3133,35.041],[134.2636,35.001],[134.2568,34.8359],[134.3106,34.7703],[134.3164,34.7441],[134.3046,34.7091]]]]}},{"type":"Feature","properties":{"iso_3166_2":"JP-34"},"geometry":{"type":"MultiPolygon","coordinates":[[[[133.443,34.4727],[133.4191,34.4679],[133.4124,34.4245],[133.3411,34.348],[133.2817,34.3215],[133.2698,34.3224],[133.2699,34.3392],[133.3055,34.3488],[133.315,34.366],[133.3047,34.3776],[133.2585,34.3823],[133.2766,34.4018],[133.2473,34.4265],[133.2297,34.3762],[133.1821,34.3414],[133.2087,34.3078],[133.1856,34.2805],[133.161,34.2942],[133.0933,34.2526],[133.0764,34.2596],[133.0723,34.3175],[133.114,34.3518],[133.1133,34.3141],[133.1331,34.3182],[133.1475,34.3514],[133.1685,34.355],[133.1343,34.3823],[133.0933,34.3898],[133.0791,34.3823],[133.0858,34.351],[133.0591,34.3323],[132.9119,34.3148],[132.853,34.2873],[132.8362,34.3111],[132.7622,34.2703],[132.7781,34.2427],[132.7715,34.2353],[132.703,34.2255],[132.6563,34.1993],[132.6272,34.198],[132.6135,34.2185],[132.5545,34.1924],[132.5447,34.2043],[132.5598,34.2184],[132.5037,34.2873],[132.5037,34.3283],[132.531,34.3351],[132.5176,34.353],[132.4968,34.3625],[132.4416,34.35],[132.4055,34.3681],[132.3835,34.3657],[132.3123,34.327],[132.2225,34.239],[132.2404,34.1898],[132.1606,34.218],[132.1264,34.2488],[132.0709,34.3595],[132.0413,34.4952],[132.1098,34.5776],[132.1508,34.6684],[132.1438,34.705],[132.2479,34.7829],[132.2894,34.7677],[132.3522,34.7869],[132.3904,34.7789],[132.4241,34.7997],[132.5091,34.7895],[132.6679,34.8382],[132.6799,34.8562],[132.6414,34.8839],[132.6425,34.8947],[132.6809,34.9304],[132.7471,34.9622],[132.8392,35.0665],[132.994,35.0805],[133.0376,35.063],[133.097,35.0715],[133.2294,35.06],[133.2643,35.0506],[133.3041,34.9974],[133.3101,34.8769],[133.3622,34.7927],[133.3655,34.7078],[133.3931,34.649],[133.3981,34.5932],[133.447,34.5176],[133.443,34.4727]]],[[[132.5552,34.0714],[132.4553,34.0881],[132.51,34.1318],[132.4968,34.157],[132.5193,34.1744],[132.5515,34.1706],[132.5379,34.157],[132.5515,34.1086],[132.5776,34.1189],[132.5698,34.0759],[132.5552,34.0714]]],[[[132.9212,34.2773],[132.9285,34.284],[132.9323,34.2748],[132.9168,34.2219],[132.8831,34.2086],[132.8499,34.2152],[132.8464,34.2402],[132.9212,34.2773]]],[[[132.3384,34.3044],[132.345,34.282],[132.3255,34.2647],[132.2959,34.2432],[132.2679,34.2445],[132.2988,34.2922],[132.3384,34.3044]]],[[[132.7385,34.197],[132.7614,34.1772],[132.74,34.1599],[132.689,34.1899],[132.709,34.2033],[132.7385,34.197]]]]}},{"type":"Feature","properties":{"iso_3166_2":"JP-35"},"geometry":{"type":"MultiPolygon","coordinates":[[[[132.2404,34.1898],[132.2389,34.1426],[132.2019,34.1086],[132.2132,33.9897],[132.1815,33.9578],[132.1356,33.9384],[132.1338,33.9134],[132.1616,33.8417],[132.0559,33.7772],[132.0414,33.7763],[132.0444,33.7933],[132.0785,33.8349],[132.0872,33.8251],[132.1089,33.8303],[132.0995,33.8723],[131.9723,33.9168],[131.9419,33.9509],[131.8521,33.9984],[131.8123,33.9714],[131.8265,33.9652],[131.7796,33.9697],[131.7775,33.9857],[131.8228,34.0267],[131.7415,34.0562],[131.6335,34.0267],[131.5933,34.0373],[131.5851,34.0267],[131.5974,34.0026],[131.5789,33.9857],[131.5676,33.9863],[131.5623,34.0046],[131.5193,34.0085],[131.4829,34.032],[131.4412,33.9789],[131.4206,33.9994],[131.4097,33.9831],[131.3933,33.9857],[131.4048,34.0173],[131.3899,34.0397],[131.3325,33.9621],[131.258,33.9248],[131.2498,33.9379],[131.2258,33.935],[131.2158,33.9508],[131.1782,33.9305],[131.1603,33.9528],[131.166,33.9771],[131.124,33.9999],[131.1032,34.0302],[131.0356,34.048],[131.014,34.0148],[130.9321,33.9454],[130.9158,33.914],[130.8794,33.9379],[130.8802,33.9504],[130.8994,33.9499],[130.9171,34.0109],[130.9053,34.0296],[130.9126,34.0533],[130.9039,34.0658],[130.8784,34.0679],[130.8616,34.1127],[130.9111,34.1545],[130.9233,34.1838],[130.8937,34.256],[130.8716,34.2792],[130.8931,34.3435],[130.8999,34.355],[130.9419,34.351],[131.0336,34.3818],[130.9551,34.4035],[130.9339,34.396],[130.9478,34.4189],[130.9764,34.439],[131.0098,34.4103],[131.0747,34.4248],[131.1339,34.4116],[131.1408,34.3785],[131.1727,34.3677],[131.1917,34.3936],[131.1713,34.4295],[131.2526,34.4374],[131.2812,34.408],[131.2295,34.4177],[131.209,34.3693],[131.3231,34.393],[131.3347,34.4161],[131.4143,34.424],[131.4133,34.4539],[131.4619,34.4993],[131.4548,34.5191],[131.5365,34.5656],[131.5573,34.6149],[131.5959,34.6168],[131.5969,34.6596],[131.6152,34.6649],[131.6564,34.6536],[131.6796,34.6665],[131.7034,34.571],[131.6688,34.5098],[131.6792,34.4471],[131.6965,34.429],[131.7685,34.4161],[131.7513,34.3635],[131.7714,34.3143],[131.8127,34.2996],[131.9081,34.3196],[131.9468,34.306],[131.9623,34.3397],[132.002,34.3639],[131.9916,34.4134],[132.0504,34.4578],[132.0709,34.3595],[132.1264,34.2488],[132.1606,34.218],[132.2404,34.1898]]],[[[132.2362,33.869],[132.2163,33.8554],[132.1863,33.9212],[132.2019,33.9448],[132.2261,33.9527],[132.2795,33.9412],[132.3262,33.8963],[132.4012,33.9168],[132.4155,33.9379],[132.4695,33.9379],[132.4365,33.9036],[132.3848,33.8942],[132.374,33.8417],[132.3324,33.848],[132.3186,33.8833],[132.2981,33.884],[132.2845,33.8616],[132.2362,33.869]]],[[[132.2437,33.7933],[132.273,33.7685],[132.1883,33.7797],[132.2088,33.8001],[132.2437,33.7933]]]]}},{"type":"Feature","properties":{"iso_3166_2":"JP-36"},"geometry":{"type":"MultiPolygon","coordinates":[[[[134.4424,34.2083],[134.4686,34.2075],[134.4952,34.2242],[134.5609,34.2214],[134.5942,34.2321],[134.6071,34.2508],[134.594,34.2138],[134.6103,34.216],[134.6469,34.2393],[134.6272,34.1879],[134.6078,34.1843],[134.6421,34.1793],[134.6052,34.1108],[134.5998,34.0095],[134.6116,33.997],[134.637,34.0107],[134.6629,33.9689],[134.7026,33.9373],[134.7029,33.9062],[134.6463,33.8531],[134.7171,33.848],[134.6898,33.8281],[134.7512,33.8349],[134.6519,33.7864],[134.6168,33.7826],[134.6078,33.766],[134.5794,33.7642],[134.5707,33.7364],[134.5464,33.7325],[134.5384,33.7169],[134.4573,33.6709],[134.404,33.6545],[134.3762,33.6357],[134.3886,33.6236],[134.353,33.5816],[134.3123,33.5725],[134.3137,33.5431],[134.2957,33.5303],[134.1901,33.5515],[134.1548,33.6092],[134.1587,33.6562],[134.1323,33.6722],[134.0602,33.6793],[134.0523,33.7484],[134.0175,33.8108],[133.9547,33.8124],[133.9064,33.785],[133.8132,33.8234],[133.7433,33.8266],[133.6479,33.8557],[133.6668,33.9013],[133.6606,33.9979],[133.8282,34.0929],[133.8999,34.1007],[133.9522,34.0737],[133.984,34.0744],[134.108,34.1122],[134.1367,34.1437],[134.1721,34.1577],[134.4083,34.157],[134.4424,34.2083]]]]}},{"type":"Feature","properties":{"iso_3166_2":"JP-37"},"geometry":{"type":"MultiPolygon","coordinates":[[[[133.5919,34.0238],[133.6413,34.0792],[133.646,34.1674],[133.6204,34.2117],[133.5584,34.2595],[133.6092,34.239],[133.6545,34.239],[133.6726,34.2231],[133.7014,34.2313],[133.782,34.2883],[133.8742,34.3283],[133.8997,34.3642],[133.937,34.3751],[134.012,34.3488],[134.0813,34.3477],[134.1008,34.3762],[134.1169,34.3605],[134.1275,34.3898],[134.1436,34.3918],[134.1582,34.3749],[134.1663,34.3249],[134.1904,34.3254],[134.2168,34.355],[134.2713,34.3231],[134.2578,34.2942],[134.3435,34.2506],[134.3967,34.2495],[134.4424,34.2083],[134.4197,34.1615],[134.3959,34.1542],[134.3602,34.164],[134.1721,34.1577],[134.1367,34.1437],[134.108,34.1122],[133.984,34.0744],[133.9522,34.0737],[133.8999,34.1007],[133.8282,34.0929],[133.6606,33.9979],[133.6467,34.0121],[133.5919,34.0238]]],[[[134.3674,34.5543],[134.3743,34.5133],[134.3469,34.4308],[134.3328,34.4448],[134.3059,34.445],[134.325,34.4537],[134.3206,34.4689],[134.2991,34.4649],[134.2624,34.4209],[134.2444,34.4177],[134.2432,34.4639],[134.2234,34.4724],[134.1702,34.4655],[134.1614,34.4792],[134.1751,34.5201],[134.2038,34.5124],[134.2713,34.5407],[134.3674,34.5543]]],[[[134.049,34.4744],[134.0383,34.4833],[134.072,34.4985],[134.1045,34.4903],[134.084,34.4598],[134.049,34.4744]]],[[[133.7157,34.3961],[133.7258,34.3714],[133.7031,34.3518],[133.6919,34.3784],[133.7157,34.3961]]]]}},{"type":"Feature","properties":{"iso_3166_2":"JP-38"},"geometry":{"type":"MultiPolygon","coordinates":[[[[132.6399,32.9089],[132.6184,32.9069],[132.5589,32.9368],[132.572,32.9231],[132.5242,32.9302],[132.5173,32.9094],[132.5379,32.8958],[132.5042,32.8917],[132.4723,32.9337],[132.494,32.9489],[132.4829,32.9705],[132.5015,32.9932],[132.4715,33.0407],[132.4197,33.0519],[132.3967,33.0166],[132.3824,33.0198],[132.4079,33.0693],[132.4518,33.0529],[132.4832,33.0677],[132.4627,33.0677],[132.469,33.0958],[132.4491,33.1149],[132.4758,33.1149],[132.4901,33.1328],[132.4407,33.1423],[132.438,33.1682],[132.4586,33.1737],[132.4237,33.1992],[132.3986,33.1872],[132.3947,33.2039],[132.4597,33.204],[132.4857,33.1692],[132.5051,33.1812],[132.5138,33.2133],[132.5484,33.2269],[132.5245,33.25],[132.5414,33.2626],[132.5077,33.2579],[132.4846,33.2765],[132.4847,33.2908],[132.5256,33.3147],[132.4201,33.3044],[132.3787,33.3195],[132.4155,33.3415],[132.4212,33.3756],[132.4024,33.3626],[132.3911,33.3979],[132.4081,33.4166],[132.3982,33.4313],[132.4212,33.4445],[132.3811,33.4661],[132.3078,33.4643],[132.1797,33.407],[132.1307,33.3636],[132.1016,33.3701],[132.1103,33.3867],[132.0255,33.3449],[132.0105,33.349],[132.0943,33.4085],[132.1666,33.4202],[132.1553,33.437],[132.1713,33.4456],[132.2646,33.4641],[132.4124,33.535],[132.5006,33.625],[132.6017,33.6604],[132.6766,33.7156],[132.6971,33.7567],[132.6901,33.8139],[132.7124,33.9045],[132.7549,33.9103],[132.7725,33.9559],[132.7699,33.9963],[132.8624,34.0559],[132.9191,34.0684],[132.9262,34.1117],[132.8954,34.1132],[132.8975,34.1227],[132.9288,34.1199],[132.9424,34.1413],[133.0318,34.0527],[133.0773,33.9597],[133.127,33.9333],[133.2437,33.9563],[133.2489,33.9741],[133.3226,33.9906],[133.511,33.9652],[133.5486,33.9809],[133.5919,34.0238],[133.6467,34.0121],[133.6606,33.9979],[133.6689,33.9278],[133.6479,33.8557],[133.5603,33.8531],[133.4685,33.8193],[133.2684,33.8048],[133.2229,33.7736],[133.1788,33.7716],[133.1076,33.6592],[133.0662,33.618],[133.0426,33.5247],[133.0026,33.4753],[132.9503,33.4497],[132.809,33.444],[132.8159,33.389],[132.8823,33.3163],[132.8596,33.2904],[132.7844,33.2497],[132.7586,33.1882],[132.6855,33.1236],[132.6187,33.1534],[132.6142,33.1359],[132.6483,33.069],[132.6753,32.9628],[132.6399,32.9089]]],[[[132.9995,34.2084],[132.9639,34.1919],[132.9548,34.1982],[132.9629,34.2185],[132.9909,34.2321],[132.9873,34.2488],[132.9697,34.2526],[133.01,34.2912],[133.03,34.2953],[133.0557,34.2424],[133.0518,34.2223],[133.0348,34.2073],[132.9995,34.2084]]],[[[133.0935,34.1743],[133.0944,34.1604],[133.0452,34.1184],[133.0171,34.1188],[133.02,34.1496],[133.0368,34.1533],[133.0262,34.1762],[133.0331,34.1894],[133.0554,34.1935],[133.0935,34.1743]]],[[[132.6414,34.0141],[132.6345,33.9648],[132.6004,33.9499],[132.5891,33.9564],[132.5964,33.9809],[132.6414,34.0141]]]]}},{"type":"Feature","properties":{"iso_3166_2":"JP-39"},"geometry":{"type":"MultiPolygon","coordinates":[[[[134.2957,33.5303],[134.2446,33.4607],[134.2145,33.3766],[134.1903,33.2483],[134.1765,33.2361],[134.1418,33.2918],[134.1062,33.2943],[134.108,33.3149],[134.0401,33.3841],[134.0255,33.4154],[133.9688,33.4357],[133.9252,33.4937],[133.7631,33.5198],[133.7394,33.5375],[133.6077,33.5158],[133.4659,33.4543],[133.4397,33.4017],[133.365,33.3876],[133.3231,33.3513],[133.326,33.3688],[133.3123,33.3756],[133.2694,33.3469],[133.252,33.2947],[133.2694,33.2523],[133.2533,33.2191],[133.2153,33.1875],[133.2254,33.1591],[133.2098,33.151],[133.1901,33.1633],[133.165,33.1372],[133.0971,33.0481],[133.0978,33.0235],[133.0528,33.0395],[133.0183,33.024],[132.9944,32.949],[133.0093,32.9035],[133.0025,32.8693],[132.9611,32.8641],[132.9555,32.8146],[133.0173,32.7579],[133.028,32.7206],[133.0022,32.7117],[132.9844,32.7196],[132.9568,32.7586],[132.9151,32.778],[132.8928,32.7742],[132.8811,32.7524],[132.8584,32.7696],[132.8122,32.7403],[132.7915,32.7407],[132.7114,32.7895],[132.6646,32.7789],[132.6277,32.7521],[132.6234,32.7995],[132.7092,32.9094],[132.6399,32.9089],[132.6733,32.9523],[132.6717,33.0011],[132.6138,33.145],[132.6326,33.152],[132.6855,33.1236],[132.7586,33.1882],[132.7844,33.2497],[132.8767,33.3027],[132.8781,33.3264],[132.8159,33.389],[132.809,33.444],[132.9503,33.4497],[133.0026,33.4753],[133.0426,33.5247],[133.0662,33.618],[133.1076,33.6592],[133.1788,33.7716],[133.2229,33.7736],[133.2684,33.8048],[133.4941,33.8246],[133.5603,33.8531],[133.6479,33.8557],[133.7433,33.8266],[133.8132,33.8234],[133.9064,33.785],[133.9547,33.8124],[134.0175,33.8108],[134.0523,33.7484],[134.0602,33.6793],[134.1323,33.6722],[134.1587,33.6562],[134.1548,33.6092],[134.1901,33.5515],[134.2957,33.5303]]],[[[132.562,32.7421],[132.5708,32.7173],[132.5497,32.7043],[132.5399,32.7338],[132.5486,32.7508],[132.562,32.7421]]]]}},{"type":"Feature","properties":{"iso_3166_2":"JP-40"},"geometry":{"type":"MultiPolygon","coordinates":[[[[130.0363,33.4576],[130.0553,33.4952],[130.168,33.5341],[130.1742,33.5469],[130.1299,33.54],[130.093,33.5734],[130.1567,33.6065],[130.1595,33.6296],[130.1978,33.6336],[130.208,33.6651],[130.2365,33.6442],[130.2314,33.6188],[130.2719,33.6117],[130.2654,33.5886],[130.2903,33.5742],[130.3153,33.5974],[130.3909,33.6049],[130.4075,33.6505],[130.3987,33.6691],[130.349,33.6411],[130.2949,33.6644],[130.2943,33.6892],[130.3241,33.6649],[130.3865,33.6772],[130.4677,33.7436],[130.4668,33.7804],[130.448,33.7899],[130.4496,33.8022],[130.4722,33.8175],[130.4889,33.8554],[130.5076,33.8491],[130.5482,33.8808],[130.6331,33.8825],[130.6924,33.9373],[130.8282,33.9396],[130.8213,33.9203],[130.8614,33.9256],[130.897,33.8893],[130.926,33.8991],[130.9766,33.9574],[131.0071,33.9661],[131.0187,33.9563],[130.9929,33.8977],[130.9998,33.8739],[130.9846,33.874],[130.9907,33.8568],[130.9636,33.8332],[130.9617,33.8162],[131.0069,33.8131],[131.0098,33.7462],[131.0813,33.635],[131.2009,33.6127],[131.1752,33.5833],[131.1811,33.5359],[131.1495,33.4957],[130.9807,33.4958],[130.938,33.4773],[130.8858,33.4254],[130.8371,33.3397],[130.843,33.2944],[130.8263,33.233],[130.856,33.143],[130.8347,33.0809],[130.7286,33.1345],[130.6852,33.14],[130.6359,33.1043],[130.5637,33.0917],[130.5082,33.0495],[130.4982,33.0002],[130.4292,32.9805],[130.4207,33.0876],[130.3794,33.1079],[130.3648,33.1403],[130.3494,33.142],[130.3468,33.1799],[130.3812,33.2364],[130.4534,33.2647],[130.484,33.3148],[130.5319,33.3379],[130.5266,33.4142],[130.4869,33.4196],[130.4143,33.3865],[130.259,33.468],[130.0363,33.4576]]]]}},{"type":"Feature","properties":{"iso_3166_2":"JP-41"},"geometry":{"type":"MultiPolygon","coordinates":[[[[129.8145,33.3312],[129.8272,33.2939],[129.8516,33.28],[129.8413,33.316],[129.8463,33.348],[129.871,33.3782],[129.8687,33.3974],[129.7873,33.4545],[129.8042,33.4818],[129.8184,33.4842],[129.8489,33.4425],[129.8713,33.4429],[129.8368,33.5133],[129.8546,33.5329],[129.8532,33.5525],[129.8688,33.5394],[129.9101,33.5472],[129.9421,33.5317],[129.9613,33.5128],[129.9412,33.4795],[129.9626,33.4826],[129.9669,33.463],[129.9889,33.4489],[130.259,33.468],[130.4143,33.3865],[130.4869,33.4196],[130.5193,33.4209],[130.5364,33.377],[130.5319,33.3379],[130.484,33.3148],[130.4534,33.2647],[130.3812,33.2364],[130.3468,33.1799],[130.3494,33.142],[130.2904,33.1496],[130.2414,33.1882],[130.1509,33.1119],[130.1276,33.1209],[130.1605,33.0541],[130.2223,32.9752],[130.2041,32.9436],[130.0595,32.9732],[129.9252,33.0688],[129.9154,33.0867],[129.9354,33.1074],[129.9301,33.1321],[129.815,33.186],[129.7594,33.2682],[129.7641,33.2882],[129.8145,33.3312]]]]}},{"type":"Feature","properties":{"iso_3166_2":"JP-42"},"geometry":{"type":"MultiPolygon","coordinates":[[[[130.2041,32.9436],[130.1885,32.9153],[130.1053,32.8759],[130.1536,32.8425],[130.195,32.8449],[130.2436,32.8753],[130.3073,32.8763],[130.3394,32.8566],[130.3722,32.7934],[130.3758,32.7479],[130.3509,32.7041],[130.3608,32.688],[130.3417,32.6673],[130.2682,32.6504],[130.2315,32.61],[130.166,32.593],[130.1696,32.6191],[130.1295,32.6411],[130.1281,32.6839],[130.1535,32.6862],[130.1901,32.7141],[130.2103,32.7332],[130.2076,32.7522],[130.1868,32.7621],[130.1902,32.7835],[130.1784,32.7929],[130.0938,32.7949],[129.9908,32.7469],[129.9704,32.7446],[129.9585,32.7648],[129.8949,32.6627],[129.8413,32.6394],[129.8323,32.6158],[129.7829,32.5735],[129.7631,32.58],[129.7404,32.5684],[129.734,32.5809],[129.783,32.6074],[129.8145,32.6626],[129.8181,32.6774],[129.8032,32.678],[129.7969,32.6922],[129.826,32.7048],[129.8344,32.6941],[129.8591,32.7245],[129.8238,32.722],[129.771,32.814],[129.7327,32.8056],[129.687,32.8548],[129.6697,32.905],[129.6384,32.9265],[129.6324,32.9791],[129.6535,33.0043],[129.6519,33.0336],[129.6816,33.0941],[129.7202,33.079],[129.7347,33.0466],[129.7502,33.057],[129.7597,33.0479],[129.7386,33.0191],[129.7417,32.991],[129.7663,33.018],[129.797,33.0101],[129.8233,32.9795],[129.8067,32.9147],[129.7869,32.9478],[129.7899,32.9122],[129.8075,32.8859],[129.7944,32.8749],[129.8454,32.8383],[129.8832,32.8757],[130.0031,32.8454],[129.9312,32.9289],[129.9456,33.0158],[129.8814,33.0628],[129.8239,33.0431],[129.8224,33.0627],[129.7975,33.0773],[129.775,33.0583],[129.7465,33.0656],[129.7332,33.1016],[129.7492,33.0981],[129.7463,33.1249],[129.7587,33.1389],[129.7285,33.1223],[129.7229,33.1584],[129.7098,33.1626],[129.7041,33.1118],[129.6807,33.1149],[129.6665,33.1013],[129.6623,33.1265],[129.687,33.1422],[129.6528,33.1702],[129.6527,33.1903],[129.5641,33.2111],[129.5521,33.2258],[129.5653,33.2721],[129.5915,33.2834],[129.5715,33.3206],[129.5804,33.371],[129.5924,33.3811],[129.6206,33.3593],[129.6444,33.3624],[129.6732,33.3985],[129.6769,33.3624],[129.701,33.353],[129.7442,33.3643],[129.8075,33.3481],[129.8145,33.3312],[129.7641,33.2882],[129.7594,33.2682],[129.815,33.186],[129.9301,33.1321],[129.9354,33.1074],[129.9154,33.0867],[129.9252,33.0688],[130.0595,32.9732],[130.2041,32.9436]]],[[[129.4526,34.6195],[129.4782,34.5971],[129.4642,34.5543],[129.4461,34.5148],[129.3795,34.4526],[129.3843,34.424],[129.3618,34.4055],[129.3595,34.3906],[129.3932,34.4108],[129.3843,34.3834],[129.408,34.3516],[129.4008,34.3379],[129.3438,34.3003],[129.3055,34.3249],[129.3451,34.3272],[129.347,34.3559],[129.3346,34.3606],[129.3051,34.3432],[129.3093,34.3844],[129.2874,34.3658],[129.2864,34.344],[129.272,34.3562],[129.2289,34.3556],[129.2354,34.3681],[129.2723,34.3757],[129.2686,34.4331],[129.3109,34.4605],[129.2807,34.4506],[129.276,34.4622],[129.3049,34.5203],[129.3261,34.5354],[129.3085,34.5604],[129.2909,34.5561],[129.2891,34.5699],[129.3233,34.6481],[129.3783,34.6449],[129.4257,34.6778],[129.4233,34.6951],[129.4646,34.7008],[129.4878,34.6764],[129.4691,34.6526],[129.4883,34.6357],[129.4809,34.6199],[129.4526,34.6195]]],[[[128.8784,32.6739],[128.8993,32.6425],[128.8177,32.6346],[128.8155,32.6468],[128.7796,32.6468],[128.7722,32.6319],[128.795,32.6101],[128.7731,32.5717],[128.736,32.6035],[128.6629,32.6015],[128.6526,32.5911],[128.6004,32.6142],[128.6243,32.6673],[128.6387,32.6352],[128.6527,32.6679],[128.6418,32.7614],[128.6608,32.7828],[128.679,32.7829],[128.6997,32.7438],[128.8085,32.7999],[128.8106,32.7661],[128.8423,32.7595],[128.8498,32.7427],[128.8421,32.7039],[128.8784,32.6739]]],[[[129.3125,34.2798],[129.3168,34.2945],[129.3471,34.287],[129.3181,34.2584],[129.3248,34.2293],[129.2975,34.2187],[129.2972,34.1705],[129.2766,34.1291],[129.2204,34.0889],[129.1903,34.1148],[129.1716,34.1068],[129.1805,34.2272],[129.2074,34.3293],[129.2285,34.3208],[129.2241,34.2934],[129.2753,34.3076],[129.2689,34.3225],[129.2802,34.3229],[129.3025,34.3078],[129.3125,34.2798]]],[[[129.098,32.9883],[129.1097,32.9829],[129.1696,33.0058],[129.1828,32.9847],[129.176,32.967],[129.1004,32.919],[129.0906,32.8915],[129.0966,32.8569],[129.0679,32.8612],[129.065,32.8178],[129.0457,32.8221],[129.0478,32.91],[129.0331,32.9333],[128.9794,32.9476],[128.9815,32.9604],[129.0204,32.9806],[129.035,32.9674],[129.0545,32.9793],[129.0426,33.0002],[129.0486,33.0396],[129.0652,33.044],[129.0676,33.0191],[129.084,33.0234],[129.0859,33.0762],[129.1066,33.1012],[129.0963,33.1254],[129.1082,33.1667],[129.1177,33.1589],[129.1086,33.1224],[129.1239,33.1092],[129.1027,33.0545],[129.098,32.9883]]],[[[129.5557,33.4108],[129.5622,33.3664],[129.5275,33.3235],[129.5383,33.3156],[129.5011,33.28],[129.4931,33.2452],[129.4126,33.1783],[129.376,33.1697],[129.3425,33.1796],[129.3499,33.2135],[129.3848,33.1835],[129.4065,33.194],[129.3777,33.2146],[129.394,33.2395],[129.4168,33.2369],[129.4064,33.275],[129.4373,33.2967],[129.4427,33.3481],[129.4951,33.3583],[129.5083,33.3821],[129.5229,33.3684],[129.5393,33.3795],[129.5235,33.3906],[129.5253,33.4049],[129.5557,33.4108]]],[[[129.7764,33.7734],[129.7996,33.7648],[129.7997,33.751],[129.7839,33.7382],[129.7351,33.7367],[129.721,33.6977],[129.6773,33.7291],[129.6812,33.7442],[129.6571,33.7426],[129.6467,33.7728],[129.687,33.7592],[129.6603,33.7836],[129.6569,33.8155],[129.6784,33.8149],[129.6731,33.8322],[129.6886,33.8711],[129.7673,33.8445],[129.7668,33.8021],[129.7969,33.7864],[129.7764,33.7734]]],[[[128.8998,32.8183],[128.9072,32.794],[128.8823,32.7653],[128.8401,32.7776],[128.8373,32.8338],[128.8569,32.83],[128.8739,32.7987],[128.863,32.8353],[128.8998,32.8183]]],[[[129.0278,32.8998],[129.0241,32.848],[128.968,32.8737],[128.9646,32.8983],[128.9956,32.8905],[128.9797,32.9165],[128.9846,32.9292],[129.0096,32.9245],[129.0278,32.8998]]],[[[129.1355,33.2999],[129.1496,33.269],[129.1273,33.2475],[129.075,33.2599],[129.0891,33.2833],[129.1355,33.2999]]],[[[128.9531,32.8742],[128.958,32.8415],[128.9451,32.8043],[128.8807,32.8626],[128.9089,32.8664],[128.9295,32.8498],[128.929,32.8647],[128.9377,32.8608],[128.9465,32.8802],[128.9531,32.8742]]],[[[129.5559,33.494],[129.5734,33.4961],[129.568,33.4785],[129.5032,33.4737],[129.5418,33.5073],[129.5559,33.494]]]]}},{"type":"Feature","properties":{"iso_3166_2":"JP-43"},"geometry":{"type":"MultiPolygon","coordinates":[[[[130.3446,32.1618],[130.4617,32.3],[130.4696,32.3471],[130.5032,32.3272],[130.5125,32.3382],[130.51,32.3785],[130.562,32.4271],[130.5713,32.4519],[130.5676,32.4777],[130.5505,32.4917],[130.5701,32.5056],[130.5988,32.5054],[130.5647,32.5463],[130.6413,32.6075],[130.6683,32.6487],[130.448,32.6214],[130.5654,32.6934],[130.626,32.7114],[130.5945,32.738],[130.613,32.7812],[130.593,32.8159],[130.4413,32.9237],[130.4292,32.9805],[130.4982,33.0002],[130.5082,33.0495],[130.5637,33.0917],[130.6359,33.1043],[130.6852,33.14],[130.7286,33.1345],[130.7868,33.1005],[130.9769,33.0289],[130.9909,33.0331],[131.0097,33.0795],[130.9797,33.1199],[130.9776,33.1607],[131.0594,33.1806],[131.1249,33.1424],[131.2091,33.0302],[131.2621,32.8663],[131.3239,32.8223],[131.2423,32.7933],[131.2104,32.7347],[131.1129,32.6311],[131.095,32.5758],[131.0466,32.5645],[131.0041,32.4874],[131.0131,32.4223],[131.0542,32.3808],[131.0878,32.3137],[131.0503,32.2462],[131.0784,32.1836],[131.0759,32.1556],[131.0056,32.1658],[130.9369,32.115],[130.8968,32.1224],[130.8235,32.0921],[130.7124,32.0909],[130.5898,32.1635],[130.4244,32.1134],[130.3933,32.1184],[130.3446,32.1618]]],[[[130.1605,32.5463],[130.1895,32.5218],[130.199,32.4802],[130.2034,32.3389],[130.1577,32.3102],[130.1333,32.2651],[130.075,32.2208],[129.9955,32.1907],[130.0091,32.2521],[129.9583,32.2375],[129.9613,32.2521],[130.0166,32.2931],[130.0643,32.3068],[130.0088,32.3059],[129.9797,32.333],[129.9766,32.3664],[129.9955,32.3887],[129.9944,32.4241],[130.0303,32.4824],[130.0029,32.5334],[130.0432,32.519],[130.1605,32.5463]]],[[[130.41,32.5116],[130.457,32.5256],[130.4685,32.5116],[130.4348,32.4927],[130.3928,32.3972],[130.3623,32.375],[130.3539,32.4241],[130.242,32.3955],[130.2131,32.4365],[130.2186,32.456],[130.363,32.5271],[130.3833,32.5094],[130.41,32.5116]]],[[[130.1531,32.2038],[130.1873,32.1964],[130.1941,32.1764],[130.1673,32.1143],[130.1493,32.1105],[130.1278,32.1323],[130.1333,32.1491],[130.1111,32.1933],[130.1211,32.2126],[130.1531,32.2038]]],[[[130.4468,32.5968],[130.4509,32.5634],[130.4246,32.5468],[130.4276,32.5373],[130.4092,32.5493],[130.3988,32.5932],[130.4365,32.6207],[130.4529,32.611],[130.4468,32.5968]]],[[[130.2439,32.3018],[130.263,32.2813],[130.2107,32.2554],[130.2171,32.2869],[130.2439,32.3018]]]]}},{"type":"Feature","properties":{"iso_3166_2":"JP-44"},"geometry":{"type":"MultiPolygon","coordinates":[[[[131.2009,33.6127],[131.2565,33.605],[131.2838,33.5824],[131.3676,33.5748],[131.4177,33.5817],[131.4986,33.667],[131.521,33.6764],[131.59,33.683],[131.6674,33.6672],[131.7371,33.5604],[131.7291,33.5125],[131.7373,33.4846],[131.7062,33.4096],[131.6587,33.4228],[131.6403,33.4166],[131.6346,33.374],[131.6011,33.3649],[131.5962,33.3494],[131.5562,33.3464],[131.533,33.3661],[131.506,33.3631],[131.4984,33.3407],[131.5104,33.2734],[131.5479,33.255],[131.6122,33.2529],[131.6545,33.2716],[131.7,33.2541],[131.7109,33.2702],[131.8222,33.244],[131.9026,33.266],[131.8722,33.2003],[131.831,33.1697],[131.8096,33.1276],[131.8426,33.1133],[131.8688,33.1288],[131.9115,33.1248],[131.8689,33.0943],[131.8632,33.0825],[131.8805,33.075],[131.9292,33.0683],[131.9424,33.0926],[131.9761,33.0602],[131.9915,33.069],[131.9961,33.0917],[132.0134,33.0639],[132.0095,33.0512],[131.984,33.0455],[131.9296,33.0471],[131.9032,32.9831],[131.9592,32.9445],[131.9792,32.9504],[132.0139,32.9344],[132.0348,32.9513],[132.0812,32.9432],[132.0841,32.9332],[132.0255,32.9236],[131.9822,32.8889],[132.0002,32.8713],[131.9556,32.8275],[131.9978,32.8297],[131.9966,32.8105],[131.9292,32.7783],[131.8825,32.7834],[131.8723,32.7316],[131.8392,32.7341],[131.8092,32.809],[131.7469,32.823],[131.7269,32.8137],[131.6957,32.7658],[131.5903,32.7598],[131.5269,32.743],[131.5019,32.7592],[131.5031,32.7928],[131.4783,32.815],[131.3566,32.8046],[131.2621,32.8663],[131.2091,33.0302],[131.1249,33.1424],[131.0594,33.1806],[130.9729,33.1542],[130.9797,33.1199],[131.0097,33.0795],[130.9909,33.0331],[130.9512,33.0323],[130.8347,33.0809],[130.856,33.143],[130.8263,33.233],[130.843,33.2944],[130.8371,33.3397],[130.8858,33.4254],[130.938,33.4773],[130.9807,33.4958],[131.1495,33.4957],[131.1811,33.5359],[131.1752,33.5833],[131.2009,33.6127]]]]}},{"type":"Feature","properties":{"iso_3166_2":"JP-45"},"geometry":{"type":"MultiPolygon","coordinates":[[[[131.8723,32.7316],[131.8559,32.6861],[131.8219,32.7027],[131.7708,32.6487],[131.749,32.5941],[131.7088,32.5859],[131.6821,32.5351],[131.6956,32.5115],[131.7365,32.4917],[131.6955,32.4682],[131.6598,32.4768],[131.6566,32.4574],[131.6891,32.4217],[131.6335,32.3955],[131.6195,32.3371],[131.5925,32.3037],[131.5624,32.2179],[131.4473,31.8769],[131.4559,31.822],[131.4963,31.796],[131.4753,31.7622],[131.4505,31.6511],[131.4553,31.6209],[131.4115,31.5861],[131.3908,31.5488],[131.3937,31.491],[131.3762,31.4744],[131.3638,31.4197],[131.3313,31.3677],[131.3182,31.3751],[131.325,31.3881],[131.2498,31.3881],[131.243,31.4223],[131.2127,31.4547],[131.1786,31.4524],[131.1506,31.4713],[131.1866,31.525],[131.1862,31.5868],[131.156,31.6127],[131.0472,31.6373],[131.0166,31.6759],[131.0024,31.7235],[130.9655,31.7607],[130.8891,31.7902],[130.8734,31.8876],[130.8028,31.9351],[130.7001,32.067],[130.7124,32.0909],[130.8235,32.0921],[130.8968,32.1224],[130.9369,32.115],[131.0056,32.1658],[131.0759,32.1556],[131.0784,32.1836],[131.0503,32.2462],[131.0878,32.3137],[131.0542,32.3808],[131.0131,32.4223],[131.0041,32.4874],[131.0351,32.5529],[131.095,32.5758],[131.1129,32.6311],[131.2581,32.8038],[131.3239,32.8223],[131.3824,32.8019],[131.4783,32.815],[131.5031,32.7928],[131.5078,32.7516],[131.5397,32.743],[131.5903,32.7598],[131.6957,32.7658],[131.7269,32.8137],[131.7612,32.8222],[131.8092,32.809],[131.8392,32.7341],[131.8723,32.7316]]]]}},{"type":"Feature","properties":{"iso_3166_2":"JP-46"},"geometry":{"type":"MultiPolygon","coordinates":[[[[131.1506,31.4713],[131.0569,31.4396],[131.0136,31.3631],[131.104,31.3288],[131.1044,31.3094],[131.0742,31.2821],[131.0926,31.2761],[131.1247,31.2883],[131.1321,31.2795],[131.0602,31.2253],[131.0082,31.2211],[130.98,31.156],[130.9407,31.1213],[130.7924,31.0778],[130.7676,31.0565],[130.7254,31.047],[130.6779,31.005],[130.6577,31.0032],[130.6633,31.0695],[130.7427,31.1213],[130.7648,31.1865],[130.7539,31.2039],[130.7897,31.2751],[130.7953,31.3444],[130.7473,31.4355],[130.7034,31.4593],[130.6925,31.4856],[130.7053,31.5288],[130.6956,31.5458],[130.6369,31.5552],[130.5909,31.586],[130.6379,31.6226],[130.6878,31.6195],[130.7117,31.6144],[130.7227,31.5634],[130.749,31.5597],[130.799,31.6117],[130.8103,31.6509],[130.8045,31.6872],[130.7764,31.7103],[130.738,31.7084],[130.686,31.7255],[130.6448,31.7147],[130.613,31.6824],[130.6022,31.6383],[130.5676,31.6007],[130.5291,31.5133],[130.5161,31.4533],[130.5735,31.3146],[130.6029,31.302],[130.6237,31.2756],[130.6603,31.2714],[130.6398,31.1865],[130.5864,31.1554],[130.5736,31.1674],[130.5368,31.1622],[130.5169,31.1754],[130.4948,31.2272],[130.4511,31.2494],[130.2222,31.2463],[130.1794,31.3278],[130.2066,31.3248],[130.2078,31.3366],[130.119,31.4086],[130.1624,31.4219],[130.196,31.4121],[130.2283,31.3813],[130.2933,31.4447],[130.3171,31.4931],[130.3345,31.5624],[130.3245,31.5867],[130.3377,31.6079],[130.3254,31.6421],[130.2593,31.7209],[130.1841,31.7587],[130.1714,31.7901],[130.1903,31.8351],[130.2351,31.8195],[130.197,31.8585],[130.2147,31.8856],[130.2204,31.9296],[130.2051,31.9717],[130.1741,31.9988],[130.173,32.0174],[130.204,32.0483],[130.204,32.0726],[130.1799,32.0935],[130.2068,32.1207],[130.2483,32.1337],[130.2787,32.1005],[130.2985,32.1059],[130.3319,32.1286],[130.3446,32.1618],[130.3933,32.1184],[130.4244,32.1134],[130.5744,32.1607],[130.6109,32.157],[130.7124,32.0909],[130.7001,32.067],[130.7839,31.9548],[130.8734,31.8876],[130.8891,31.7902],[130.9655,31.7607],[131.0024,31.7235],[131.0166,31.6759],[131.0472,31.6373],[131.156,31.6127],[131.1862,31.5868],[131.1866,31.525],[131.1506,31.4713]]],[[[130.6746,30.3746],[130.6471,30.2905],[130.6038,30.2525],[130.5773,30.2359],[130.486,30.2258],[130.4377,30.239],[130.3863,30.3396],[130.3762,30.3944],[130.4234,30.399],[130.4671,30.4572],[130.499,30.468],[130.6746,30.3746]]],[[[131.052,30.8402],[131.0615,30.8406],[131.0879,30.7826],[131.0712,30.7693],[131.0789,30.6991],[131.0538,30.6619],[131.0576,30.6113],[131.0378,30.5892],[131.0356,30.5572],[131.0034,30.5512],[130.9826,30.5193],[130.9648,30.4563],[130.978,30.4376],[130.9696,30.4154],[130.9778,30.4003],[130.9622,30.3728],[130.9065,30.366],[130.8858,30.3439],[130.8704,30.3439],[130.8571,30.3662],[130.8655,30.3973],[130.8515,30.4701],[130.87,30.4639],[130.9302,30.5409],[130.9509,30.595],[130.9393,30.6723],[130.9852,30.7414],[130.9997,30.7457],[131.0063,30.7892],[131.052,30.8402]]],[[[129.7832,31.7996],[129.7996,31.7454],[129.7761,31.7295],[129.7293,31.6442],[129.696,31.6214],[129.6594,31.6419],[129.6554,31.6598],[129.6763,31.667],[129.7166,31.7304],[129.7678,31.7593],[129.7832,31.7996]]],[[[129.9334,31.8678],[129.9292,31.8267],[129.8899,31.8107],[129.8591,31.8237],[129.8504,31.8574],[129.8206,31.8455],[129.845,31.8806],[129.9099,31.8457],[129.9134,31.8677],[129.9334,31.8678]]],[[[130.2201,30.4716],[130.2621,30.447],[130.2622,30.435],[130.2125,30.4207],[130.1931,30.4396],[130.1904,30.4613],[130.1731,30.4544],[130.1418,30.4893],[130.2201,30.4716]]],[[[129.9463,30.8447],[129.9598,30.8287],[129.9395,30.8134],[129.912,30.8198],[129.904,30.8344],[129.9321,30.8518],[129.9463,30.8447]]]]}},{"type":"Feature","properties":{"iso_3166_2":"JP-47"},"geometry":{"type":"MultiPolygon","coordinates":[[[[128.3377,26.7969],[128.3377,26.7643],[128.3081,26.7009],[128.2966,26.7013],[128.2433,26.6333],[128.1516,26.6125],[128.1321,26.5812],[128.1458,26.5734],[128.1384,26.554],[128.0903,26.5427],[128.0559,26.5505],[127.9841,26.4785],[127.9509,26.4667],[127.9473,26.4512],[127.8517,26.4412],[127.8389,26.4252],[127.8648,26.4065],[127.8783,26.3519],[127.9199,26.3096],[127.8408,26.3239],[127.8283,26.3162],[127.771,26.2165],[127.7754,26.1851],[127.8236,26.1868],[127.7969,26.1397],[127.7757,26.1218],[127.7549,26.1253],[127.7254,26.0896],[127.6517,26.0844],[127.6571,26.1218],[127.6382,26.2147],[127.6585,26.2123],[127.6777,26.2306],[127.7002,26.2761],[127.7183,26.2741],[127.7313,26.2894],[127.7419,26.3205],[127.7225,26.4299],[127.8052,26.4476],[127.8306,26.4884],[127.9375,26.5321],[127.9602,26.5641],[127.9559,26.5948],[127.8856,26.6202],[127.8783,26.6945],[127.9873,26.6929],[128.0012,26.6802],[127.9885,26.653],[127.9956,26.6392],[128.0574,26.6448],[128.1111,26.674],[128.1113,26.7034],[128.1524,26.7315],[128.188,26.7805],[128.2259,26.801],[128.2551,26.8863],[128.3377,26.7969]]],[[[126.8101,26.3519],[126.7889,26.3035],[126.7599,26.3344],[126.7036,26.3553],[126.6978,26.369],[126.7236,26.386],[126.7699,26.388],[126.8101,26.3519]]],[[[128.4544,27.0475],[128.4486,27.0207],[128.3963,27.0408],[128.429,27.0665],[128.4544,27.0475]]],[[[127.9954,27.0917],[127.9758,27.0397],[127.9258,27.0098],[127.9954,27.0917]]],[[[127.8098,26.7354],[127.8112,26.707],[127.7586,26.7129],[127.7546,26.7286],[127.8098,26.7354]]],[[[127.3696,26.2146],[127.3535,26.154],[127.3428,26.1702],[127.3462,26.2064],[127.3542,26.2189],[127.3696,26.2146]]]]}}]}